postcode,name,latitude,longitude
3000,Melbourne,-37.81,144.97
3001,Melbourne,-38.37,144.77
3002,EastMelbourne,-37.82,144.99
3003,WestMelbourne,-37.81,144.94
3004,Melbourne,-37.84,144.98
3004,StKildaRoadCentral,-37.84,144.98
3005,WorldTradeCentre,-37.82,144.95
3006,SouthWharf,-37.82,144.97
3006,Southbank,-37.82,144.97
3008,Docklands,-37.81,144.95
3010,UniversityOfMelbourne,-37.8,144.96
3011,Footscray,-37.8,144.9
3011,Seddon,-37.8,144.9
3011,SeddonWest,-37.8,144.9
3012,Brooklyn,-37.81,144.85
3012,Kingsville,-37.81,144.85
3012,KingsvilleWest,-37.81,144.85
3012,Maidstone,-37.81,144.85
3012,Tottenham,-37.81,144.85
3012,WestFootscray,-37.81,144.85
3013,Yarraville,-37.82,144.89
3013,YarravilleWest,-37.82,144.89
3015,Newport,-37.84,144.88
3015,SouthKingsville,-37.84,144.88
3015,Spotswood,-37.84,144.88
3016,Williamstown,-37.86,144.9
3016,WilliamstownNorth,-37.86,144.9
3018,Altona,-37.87,144.83
3018,Seaholme,-37.87,144.83
3019,Braybrook,-37.78,144.86
3019,BraybrookNorth,-37.78,144.86
3019,Robinson,-37.78,144.86
3020,Albion,-37.78,144.82
3020,Glengala,-37.78,144.82
3020,Sunshine,-37.78,144.82
3020,SunshineNorth,-37.78,144.82
3020,SunshineWest,-37.78,144.82
3021,Albanvale,-37.75,144.77
3021,Kealba,-37.75,144.77
3021,KingsPark,-37.75,144.77
3021,StAlbans,-37.75,144.77
3022,Ardeer,-37.78,144.8
3022,DeerParkEast,-37.78,144.8
3023,Burnside,-37.75,144.75
3023,BurnsideHeights,-37.75,144.75
3023,Cairnlea,-37.75,144.75
3023,CarolineSprings,-37.75,144.75
3023,DeerPark,-37.75,144.75
3023,DeerParkNorth,-37.75,144.75
3023,Ravenhall,-37.75,144.75
3024,Mambourin,-37.9,144.56
3024,MountCottrell,-37.9,144.56
3024,WyndhamVale,-37.9,144.56
3025,AltonaEast,-37.84,144.86
3025,AltonaGate,-37.84,144.86
3025,AltonaNorth,-37.84,144.86
3026,LavertonNorth,-37.84,144.8
3027,WilliamsLanding,-37.86,144.76
3028,AltonaMeadows,-37.87,144.78
3028,Laverton,-37.87,144.78
3028,Seabrook,-37.87,144.78
3029,HoppersCrossing,-37.88,144.7
3029,Tarneit,-37.88,144.7
3029,Truganina,-37.88,144.7
3030,Cocoroc,-37.97,144.58
3030,Derrimut,-37.97,144.58
3030,PointCook,-37.97,144.58
3030,Quandong,-37.97,144.58
3030,Werribee,-37.97,144.58
3030,WerribeeSouth,-37.97,144.58
3031,Flemington,-37.79,144.93
3031,Kensington,-37.79,144.93
3032,AscotVale,-37.78,144.92
3032,HighpointCity,-37.78,144.92
3032,Maribyrnong,-37.78,144.92
3032,Travancore,-37.78,144.92
3033,KeilorEast,-37.74,144.8
3034,AvondaleHeights,-37.74,144.82
3036,Keilor,-37.72,144.83
3036,KeilorNorth,-37.72,144.83
3037,CalderPark,-37.72,144.78
3037,Delahey,-37.72,144.78
3037,Hillside,-37.72,144.78
3037,Sydenham,-37.72,144.78
3037,TaylorsHill,-37.72,144.78
3038,KeilorDowns,-37.73,144.81
3038,KeilorLodge,-37.73,144.81
3038,TaylorsLakes,-37.73,144.81
3038,Watergardens,-37.73,144.81
3039,MooneePonds,-37.77,144.92
3040,Aberfeldie,-37.76,144.9
3040,Essendon,-37.76,144.9
3040,EssendonWest,-37.76,144.9
3041,EssendonFields,-37.74,144.91
3041,EssendonNorth,-37.74,144.91
3041,Strathmore,-37.74,144.91
3041,StrathmoreHeights,-37.74,144.91
3042,AirportWest,-37.71,144.89
3042,KeilorPark,-37.71,144.89
3042,Niddrie,-37.71,144.89
3043,GladstonePark,-37.69,144.88
3043,Gowanbrae,-37.69,144.88
3043,Tullamarine,-37.69,144.88
3044,PascoeVale,-37.73,144.94
3044,PascoeValeSouth,-37.73,144.94
3045,MelbourneAirport,-37.67,144.83
3046,Glenroy,-37.7,144.92
3046,Hadfield,-37.7,144.92
3046,OakPark,-37.7,144.92
3047,Broadmeadows,-37.68,144.92
3047,Dallas,-37.68,144.92
3047,Jacana,-37.68,144.92
3048,Coolaroo,-37.65,144.93
3048,MeadowHeights,-37.65,144.93
3049,Attwood,-37.67,144.89
3049,Westmeadows,-37.67,144.89
3050,RoyalMelbourneHospital,-37.8,144.96
3051,HothamHill,-37.91,145.06
3051,NorthMelbourne,-37.91,145.06
3052,MelbourneUniversity,-37.8,144.96
3052,Parkville,-37.8,144.96
3053,Carlton,-37.78,144.97
3053,CarltonSouth,-37.78,144.97
3054,CarltonNorth,-37.78,144.97
3054,PrincesHill,-37.78,144.97
3055,BrunswickSouth,-37.77,144.94
3055,BrunswickWest,-37.77,144.94
3055,MooneeVale,-37.77,144.94
3055,MorelandWest,-37.77,144.94
3056,Brunswick,-37.76,144.94
3056,BrunswickLower,-37.76,144.94
3056,BrunswickNorth,-37.76,144.94
3057,BrunswickEast,-37.76,144.98
3057,LygonStreetNorth,-37.76,144.98
3057,Sumner,-37.76,144.98
3058,Batman,-37.73,144.96
3058,Coburg,-37.73,144.96
3058,CoburgNorth,-37.73,144.96
3058,Merlynston,-37.73,144.96
3058,Moreland,-37.73,144.96
3059,Greenvale,-37.64,144.89
3060,Fawkner,-37.76,144.9
3060,FawknerEast,-37.76,144.9
3060,FawknerNorth,-37.76,144.9
3061,Campbellfield,-37.64,144.95
3062,Somerton,-37.64,144.94
3063,OaklandsJunction,-37.63,144.84
3063,Yuroke,-37.63,144.84
3064,Craigieburn,-37.6,144.94
3064,Donnybrook,-37.6,144.94
3064,Kalkallo,-37.6,144.94
3064,Mickleham,-37.6,144.94
3064,RoxburghPark,-37.6,144.94
3065,Fitzroy,-37.8,144.98
3066,Collingwood,-37.8,144.98
3066,CollingwoodNorth,-37.8,144.98
3067,Abbotsford,-37.8,145
3068,CliftonHill,-37.79,144.99
3068,FitzroyNorth,-37.79,144.99
3070,Northcote,-37.77,145
3070,NorthcoteSouth,-37.77,145
3071,Thornbury,-37.76,145
3072,Gilberton,-37.74,145.03
3072,NorthlandCentre,-37.74,145.03
3072,Preston,-37.74,145.03
3072,PrestonLower,-37.74,145.03
3072,PrestonSouth,-37.74,145.03
3072,PrestonWest,-37.74,145.03
3072,RegentWest,-37.74,145.03
3073,KeonPark,-37.69,145.01
3073,Reservoir,-37.69,145.01
3073,ReservoirEast,-37.69,145.01
3073,ReservoirNorth,-37.69,145.01
3073,ReservoirSouth,-37.69,145.01
3074,Thomastown,-37.68,145.01
3075,Lalor,-37.67,145.02
3075,LalorPlaza,-37.67,145.02
3076,Epping,-37.64,145.01
3076,EppingDC,-37.64,145.01
3078,Alphington,-37.78,145.03
3078,Fairfield,-37.78,145.03
3079,Ivanhoe,-37.77,145.04
3079,IvanhoeEast,-37.77,145.04
3079,IvanhoeNorth,-37.77,145.04
3081,Bellfield,-37.75,145.05
3081,HeidelbergHeights,-37.75,145.05
3081,HeidelbergRgh,-37.75,145.05
3081,HeidelbergWest,-37.75,145.05
3082,MillPark,-37.67,145.06
3083,Bundoora,-37.7,145.07
3083,Kingsbury,-37.7,145.07
3083,LaTrobeUniversity,-37.7,145.07
3084,Banyule,-37.74,145.09
3084,Eaglemont,-37.74,145.09
3084,Heidelberg,-37.74,145.09
3084,Rosanna,-37.74,145.09
3084,Viewbank,-37.74,145.09
3085,Macleod,-37.73,145.07
3085,MacleodWest,-37.73,145.07
3085,Yallambie,-37.73,145.07
3086,LaTrobeUniversity,-37.72,145.05
3087,Watsonia,-37.71,145.08
3087,WatsoniaNorth,-37.71,145.08
3088,BriarHill,-37.71,145.12
3088,Greensborough,-37.71,145.12
3088,StHelena,-37.71,145.12
3089,DiamondCreek,-37.64,145.22
3090,Plenty,-37.67,145.12
3091,Yarrambat,-37.64,145.13
3093,LowerPlenty,-37.73,145.09
3094,Montmorency,-37.72,145.12
3095,Eltham,-37.71,145.15
3095,ElthamNorth,-37.71,145.15
3095,Research,-37.71,145.15
3096,WattleGlen,-37.67,145.19
3097,BendOfIslands,-37.7,145.28
3097,KangarooGround,-37.7,145.28
3097,WatsonsCreek,-37.7,145.28
3099,ArthursCreek,-37.59,145.22
3099,CottlesBridge,-37.59,145.22
3099,Hurstbridge,-37.59,145.22
3099,Nutfield,-37.59,145.22
3099,Strathewen,-37.59,145.22
3101,Cotham,-37.81,145.04
3101,Kew,-37.81,145.04
3102,KewEast,-37.8,145.05
3103,Balwyn,-37.81,145.08
3103,BalwynEast,-37.81,145.08
3104,BalwynNorth,-37.79,145.07
3104,Greythorn,-37.79,145.07
3105,Bulleen,-37.77,145.08
3105,BulleenSouth,-37.77,145.08
3106,Templestowe,-37.77,145.12
3107,TemplestoweLower,-37.76,145.1
3108,Doncaster,-37.78,145.12
3109,DoncasterEast,-37.81,145.19
3109,DoncasterHeights,-37.81,145.19
3109,ThePines,-37.81,145.19
3109,TunstallSquarePo,-37.81,145.19
3110,NunawadingBC,0,0
3111,Donvale,-38.18,144.47
3113,NorthWarrandyte,-37.73,145.22
3113,Warrandyte,-37.73,145.22
3114,ParkOrchards,-37.78,145.21
3115,WongaPark,-37.74,145.27
3116,ChirnsidePark,-37.75,145.33
3121,Burnley,-37.83,145.01
3121,BurnleyNorth,-37.83,145.01
3121,Cremorne,-37.83,145.01
3121,Richmond,-37.83,145.01
3121,RichmondEast,-37.83,145.01
3121,RichmondNorth,-37.83,145.01
3121,RichmondSouth,-37.83,145.01
3122,AuburnSouth,-37.84,145.05
3122,GlenferrieSouth,-37.84,145.05
3122,Hawthorn,-37.84,145.05
3122,HawthornNorth,-37.84,145.05
3122,HawthornWest,-37.84,145.05
3123,Auburn,-37.83,145.04
3123,HawthornEast,-37.83,145.04
3124,Camberwell,-37.82,145.06
3124,CamberwellNorth,-37.82,145.06
3124,CamberwellSouth,-37.82,145.06
3124,CamberwellWest,-37.82,145.06
3124,Hartwell,-37.82,145.06
3124,MiddleCamberwell,-37.82,145.06
3125,Bennettswood,-37.84,145.12
3125,Burwood,-37.84,145.12
3125,SurreyHillsSouth,-37.84,145.12
3126,CamberwellEast,-37.84,145.09
3126,Canterbury,-37.84,145.09
3127,MontAlbert,-37.82,145.1
3127,SurreyHills,-37.82,145.1
3127,SurreyHillsNorth,-37.82,145.1
3128,BoxHill,-37.82,145.12
3128,BoxHillCentral,-37.82,145.12
3128,BoxHillSouth,-37.82,145.12
3128,Houston,-37.82,145.12
3128,WattlePark,-37.82,145.12
3129,BoxHillNorth,-37.8,145.13
3129,Kerrimuir,-37.8,145.13
3129,MontAlbertNorth,-37.8,145.13
3130,Blackburn,-37.82,145.15
3130,BlackburnNorth,-37.82,145.15
3130,BlackburnSouth,-37.82,145.15
3130,Laburnum,-37.82,145.15
3131,BrentfordSquare,-37.84,145.18
3131,ForestHill,-37.84,145.18
3131,Nunawading,-37.84,145.18
3132,Mitcham,-37.82,145.19
3132,MitchamNorth,-37.82,145.19
3132,Rangeview,-37.82,145.19
3133,Vermont,-37.84,145.19
3133,VermontSouth,-37.84,145.19
3134,Heathwood,-37.81,145.23
3134,Ringwood,-37.81,145.23
3134,RingwoodNorth,-37.81,145.23
3134,WarrandyteSouth,-37.81,145.23
3134,Warranwood,-37.81,145.23
3135,BedfordRoad,-37.82,145.25
3135,Heathmont,-37.82,145.25
3135,RingwoodEast,-37.82,145.25
3136,Croydon,-37.8,145.28
3136,CroydonHills,-37.8,145.28
3136,CroydonNorth,-37.8,145.28
3136,CroydonSouth,-37.8,145.28
3137,Kilsyth,-37.8,145.31
3137,KilsythSouth,-37.8,145.31
3138,Mooroolbark,-37.77,145.33
3139,Beenak,-37.8,145.54
3139,DonValley,-37.8,145.54
3139,HoddlesCreek,-37.8,145.54
3139,LaunchingPlace,-37.8,145.54
3139,Seville,-37.8,145.54
3139,SevilleEast,-37.8,145.54
3139,WandinEast,-37.8,145.54
3139,WandinNorth,-37.8,145.54
3139,WooriYallock,-37.8,145.54
3139,Yellingbo,-37.8,145.54
3140,Lilydale,-37.76,145.35
3141,ChapelStreetNorth,-36.99,144.06
3141,DomainRoadPo,-36.99,144.06
3141,SouthYarra,-36.99,144.06
3142,Hawksburn,-37.84,145
3142,Toorak,-37.84,145
3143,Armadale,-37.86,145.02
3143,ArmadaleNorth,-37.86,145.02
3144,Kooyong,-37.84,145.03
3144,Malvern,-37.84,145.03
3144,MalvernNorth,-37.84,145.03
3145,CaulfieldEast,-37.88,145.04
3145,CentralPark,-37.88,145.04
3145,Darling,-37.88,145.04
3145,DarlingSouth,-37.88,145.04
3145,MalvernEast,-37.88,145.04
3145,WattletreeRoadPo,-37.88,145.04
3146,GlenIris,-37.85,145.07
3147,Ashburton,-37.86,145.08
3147,Ashwood,-37.86,145.08
3148,Chadstone,-37.89,145.08
3148,ChadstoneCentre,-37.89,145.08
3148,Holmesglen,-37.89,145.08
3148,Jordanville,-37.89,145.08
3149,MountWaverley,-37.88,145.13
3149,Pinewood,-37.88,145.13
3149,Syndal,-37.88,145.13
3150,BrandonPark,-37.88,145.17
3150,GlenWaverley,-37.88,145.17
3150,WheelersHill,-37.88,145.17
3151,BurwoodEast,-37.86,145.14
3151,BurwoodHeights,-37.86,145.14
3152,KnoxCityCentre,-37.87,145.24
3152,Studfield,-37.87,145.24
3152,Wantirna,-37.87,145.24
3152,WantirnaSouth,-37.87,145.24
3153,Bayswater,-37.84,145.27
3153,BayswaterNorth,-37.84,145.27
3154,TheBasin,-37.85,145.31
3155,Boronia,-37.86,145.28
3156,FerntreeGully,-37.88,145.3
3156,Lysterfield,-37.88,145.3
3156,LysterfieldSouth,-37.88,145.3
3156,MountainGate,-37.88,145.3
3156,UpperFerntreeGully,-37.88,145.3
3158,Upwey,-37.9,145.33
3159,MenziesCreek,-37.92,145.4
3159,Selby,-37.92,145.4
3160,Belgrave,-37.91,145.36
3160,BelgraveHeights,-37.91,145.36
3160,BelgraveSouth,-37.91,145.36
3160,Tecoma,-37.91,145.36
3161,CaulfieldJunction,-38.03,145.31
3161,CaulfieldNorth,-38.03,145.31
3162,Caulfield,-37.88,145.03
3162,CaulfieldSouth,-37.88,145.03
3162,HopetounGardens,-37.88,145.03
3163,BooranRoadPo,-37.89,145.06
3163,Carnegie,-37.89,145.06
3163,GlenHuntly,-37.89,145.06
3163,Murrumbeena,-37.89,145.06
3164,DandenongSouth,-38.02,145.24
3165,BentleighEast,-37.93,145.06
3165,Coatesville,-37.93,145.06
3166,Hughesdale,-37.9,145.08
3166,Huntingdale,-37.9,145.08
3166,Oakleigh,-37.9,145.08
3166,OakleighEast,-37.9,145.08
3167,OakleighSouth,-37.93,145.1
3168,Clayton,-37.93,145.12
3168,NottingHill,-37.93,145.12
3169,Clarinda,-37.94,145.1
3169,ClaytonSouth,-37.94,145.1
3170,Mulgrave,-37.87,145.1
3170,WaverleyGardens,-37.87,145.1
3171,SandownVillage,-37.95,145.16
3171,Springvale,-37.95,145.16
3172,DingleyVillage,-37.97,145.12
3172,SpringvaleSouth,-37.97,145.12
3173,Keysborough,-37.99,145.15
3174,NoblePark,-37.97,145.18
3174,NobleParkEast,-37.97,145.18
3174,NobleParkNorth,-37.97,145.18
3175,Bangholme,-38.03,145.18
3175,Dandenong,-38.03,145.18
3175,DandenongEast,-38.03,145.18
3175,DandenongNorth,-38.03,145.18
3175,DandenongPlaza,-38.03,145.18
3175,DandenongSouth,-38.03,145.18
3175,Dunearn,-38.03,145.18
3176,ScoresbyBC,0,0
3177,Doveton,-38,145.24
3177,Eumemmerring,-38,145.24
3178,Rowville,-37.93,145.24
3179,Scoresby,-37.86,145.26
3180,Knoxfield,-37.89,145.25
3181,Prahran,-37.85,144.99
3181,PrahranEast,-37.85,144.99
3181,Windsor,-37.85,144.99
3182,StKilda,-37.87,144.98
3182,StKildaSouth,-37.87,144.98
3182,StKildaWest,-37.87,144.98
3183,Balaclava,-37.87,145
3183,StKildaEast,-37.87,145
3184,BrightonRoad,-37.88,145
3184,Elwood,-37.88,145
3185,Elsternwick,-37.88,145
3185,Gardenvale,-37.88,145
3185,Ripponlea,-37.88,145
3186,Brighton,-37.91,144.99
3186,BrightonNorth,-37.91,144.99
3186,Dendy,-37.91,144.99
3186,WereStreetPo,-37.91,144.99
3187,BrightonEast,-37.9,145
3187,NorthRoad,-37.9,145
3188,Hampton,-37.93,145.03
3188,HamptonEast,-37.93,145.03
3188,HamptonNorth,-37.93,145.03
3189,Moorabbin,-37.93,145.04
3189,MoorabbinEast,-37.93,145.04
3189,Wishart,-37.93,145.04
3190,Highett,-37.95,145.03
3191,Sandringham,-37.95,145.01
3192,Cheltenham,-37.96,145.06
3192,CheltenhamEast,-37.96,145.06
3192,CheltenhamNorth,-37.96,145.06
3192,SouthlandCentre,-37.96,145.06
3193,Beaumaris,-37.99,145.03
3193,BlackRock,-37.99,145.03
3193,BlackRockNorth,-37.99,145.03
3193,Cromer,-37.99,145.03
3194,Mentone,-37.98,145.06
3194,MentoneEast,-37.98,145.06
3194,MoorabbinAirport,-37.98,145.06
3195,Aspendale,-38.03,145.1
3195,AspendaleGardens,-38.03,145.1
3195,Braeside,-38.03,145.1
3195,Mordialloc,-38.03,145.1
3195,MordiallocNorth,-38.03,145.1
3195,Parkdale,-38.03,145.1
3195,Waterways,-38.03,145.1
3196,Bonbeach,-38.06,145.12
3196,Chelsea,-38.06,145.12
3196,ChelseaHeights,-38.06,145.12
3196,Edithvale,-38.06,145.12
3197,Carrum,-38.08,145.12
3197,PattersonLakes,-38.08,145.12
3198,BelvederePark,-38.11,145.16
3198,Seaford,-38.11,145.16
3199,Frankston,-38.15,145.12
3199,FrankstonEast,-38.15,145.12
3199,FrankstonHeights,-38.15,145.12
3199,FrankstonSouth,-38.15,145.12
3199,Karingal,-38.15,145.12
3199,KaringalCentre,-38.15,145.12
3200,FrankstonNorth,-38.17,145.19
3200,PinesForest,-38.17,145.19
3201,CarrumDowns,-38.09,145.19
3202,Heatherton,-37.97,145.21
3204,Bentleigh,-37.92,145.04
3204,Mckinnon,-37.92,145.04
3204,Ormond,-37.92,145.04
3204,Patterson,-37.92,145.04
3205,SouthMelbourne,-37.93,145.03
3205,SouthMelbourneDC,-37.93,145.03
3206,AlbertPark,-37.84,144.96
3206,MiddlePark,-37.84,144.96
3207,GardenCity,-37.83,144.96
3207,PortMelbourne,-37.83,144.96
3211,LittleRiver,-37.97,144.53
3212,Avalon,-38.02,144.41
3212,Lara,-38.02,144.41
3212,PointWilson,-38.02,144.41
3214,Corio,-38.07,144.36
3214,Norlane,-38.07,144.36
3214,NorthShore,-38.07,144.36
3215,BellPark,-38.11,144.33
3215,BellPostHill,-38.11,144.33
3215,Drumcondra,-38.11,144.33
3215,GeelongNorth,-38.11,144.33
3215,HamlynHeights,-38.11,144.33
3215,NorthGeelong,-38.11,144.33
3215,Rippleside,-38.11,144.33
3216,Belmont,-38.18,144.34
3216,FreshwaterCreek,-38.18,144.34
3216,Grovedale,-38.18,144.34
3216,GrovedaleEast,-38.18,144.34
3216,Highton,-38.18,144.34
3216,Marshall,-38.18,144.34
3216,MountDuneed,-38.18,144.34
3216,WandanaHeights,-38.18,144.34
3216,WaurnPonds,-38.18,144.34
3217,DeakinUniversity,-38.2,144.3
3218,GeelongWest,-38.14,144.35
3218,HerneHill,-38.14,144.35
3218,ManifoldHeights,-38.14,144.35
3219,Breakwater,-38.18,144.38
3219,EastGeelong,-38.18,144.38
3219,Newcomb,-38.18,144.38
3219,StAlbansPark,-38.18,144.38
3219,Thomson,-38.18,144.38
3219,Whittington,-38.18,144.38
3220,Bareena,-38.18,145.11
3220,Geelong,-38.18,145.11
3220,Newtown,-38.18,145.11
3220,SouthGeelong,-38.18,145.11
3221,Anakie,-37.9,144.25
3221,Barrabool,-37.9,144.25
3221,Batesford,-37.9,144.25
3221,Bellarine,-37.9,144.25
3221,Ceres,-37.9,144.25
3221,Fyansford,-37.9,144.25
3221,GeelongMC,-37.9,144.25
3221,Gnarwarre,-37.9,144.25
3221,GreyRiver,-37.9,144.25
3221,KennettRiver,-37.9,144.25
3221,LovelyBanks,-37.9,144.25
3221,Moolap,-37.9,144.25
3221,Moorabool,-37.9,144.25
3221,Murgheboluc,-37.9,144.25
3221,SeparationCreek,-37.9,144.25
3221,StaughtonVale,-37.9,144.25
3221,Stonehaven,-37.9,144.25
3221,Sugarloaf,-37.9,144.25
3221,Wallington,-37.9,144.25
3221,Wongarra,-37.9,144.25
3221,WyeRiver,-37.9,144.25
3222,CliftonSprings,-38.16,144.56
3222,Curlewis,-38.16,144.56
3222,Drysdale,-38.16,144.56
3222,Mannerim,-38.16,144.56
3222,MarcusHill,-38.16,144.56
3223,IndentedHead,-38.14,144.71
3223,Portarlington,-38.14,144.71
3223,StLeonards,-38.14,144.71
3224,Leopold,-38.18,144.46
3225,PointLonsdale,-38.29,144.61
3225,Queenscliff,-38.29,144.61
3225,SwanBay,-38.29,144.61
3225,SwanIsland,-38.29,144.61
3226,OceanGrove,-38.27,144.54
3227,BarwonHeads,-38.28,144.49
3227,Breamlea,-38.28,144.49
3227,Connewarre,-38.28,144.49
3228,Bellbrae,-38.33,144.26
3228,BellsBeach,-38.33,144.26
3228,JanJuc,-38.33,144.26
3228,Torquay,-38.33,144.26
3230,Anglesea,-38.41,144.19
3231,AireysInlet,-38.46,144.11
3231,BigHill,-38.46,144.11
3231,EasternView,-38.46,144.11
3231,Fairhaven,-38.46,144.11
3231,MoggsCreek,-38.46,144.11
3232,Lorne,-38.52,144
3233,ApolloBay,-38.75,143.67
3233,CapeOtway,-38.75,143.67
3233,Marengo,-38.75,143.67
3233,PetticoatCreek,-38.75,143.67
3233,SkenesCreek,-38.75,143.67
3233,SkenesCreekNorth,-38.75,143.67
3235,Benwerrin,-38.47,143.93
3235,Boonah,-38.47,143.93
3235,DeansMarsh,-38.47,143.93
3235,Pennyroyal,-38.47,143.93
3236,Forrest,-38.52,143.71
3236,MountSabine,-38.52,143.71
3237,AireValley,-38.69,143.56
3237,BeechForest,-38.69,143.56
3237,Ferguson,-38.69,143.56
3237,GellibrandLower,-38.69,143.56
3237,WattleHill,-38.69,143.56
3237,Weeaproinah,-38.69,143.56
3237,Wyelangta,-38.69,143.56
3237,Yuulong,-38.69,143.56
3238,Glenaire,-38.78,143.43
3238,HordernVale,-38.78,143.43
3238,Johanna,-38.78,143.43
3238,LaversHill,-38.78,143.43
3239,CarlisleRiver,-38.56,143.4
3239,ChappleVale,-38.56,143.4
3239,Gellibrand,-38.56,143.4
3239,KennedysCreek,-38.56,143.4
3240,Buckley,-38.22,144.08
3240,Gherang,-38.22,144.08
3240,Modewarre,-38.22,144.08
3240,Moriac,-38.22,144.08
3240,MountMoriac,-38.22,144.08
3240,Paraparap,-38.22,144.08
3241,Bambra,-38.37,143.95
3241,Ombersley,-38.37,143.95
3241,Wensleydale,-38.37,143.95
3241,Winchelsea,-38.37,143.95
3241,WinchelseaSouth,-38.37,143.95
3241,Wurdiboluc,-38.37,143.95
3242,Birregurra,-38.31,143.79
3243,BarwonDowns,-38.47,143.76
3243,Murroon,-38.47,143.76
3243,Warncoort,-38.47,143.76
3243,Whoorel,-38.47,143.76
3249,Alvie,-38.24,143.48
3249,Balintore,-38.24,143.48
3249,Barongarook,-38.24,143.48
3249,BarongarookWest,-38.24,143.48
3249,Barramunga,-38.24,143.48
3249,Coragulac,-38.24,143.48
3249,Corunnun,-38.24,143.48
3249,Dreeite,-38.24,143.48
3249,DreeiteSouth,-38.24,143.48
3249,Gerangamete,-38.24,143.48
3249,Irrewarra,-38.24,143.48
3249,Irrewillipe,-38.24,143.48
3249,IrrewillipeEast,-38.24,143.48
3249,Kawarren,-38.24,143.48
3249,Larpent,-38.24,143.48
3249,Nalangil,-38.24,143.48
3249,Ondit,-38.24,143.48
3249,PirronYallock,-38.24,143.48
3249,PomborneitEast,-38.24,143.48
3249,SwanMarsh,-38.24,143.48
3249,Tanybryn,-38.24,143.48
3249,Warrion,-38.24,143.48
3249,WoolWool,-38.24,143.48
3249,Yeo,-38.24,143.48
3249,Yeodene,-38.24,143.48
3250,Colac,-38.34,143.58
3250,ColacEast,-38.34,143.58
3250,ColacWest,-38.34,143.58
3250,Elliminyt,-38.34,143.58
3251,Beeac,-38.19,143.64
3251,Cundare,-38.19,143.64
3251,CundareNorth,-38.19,143.64
3251,Eurack,-38.19,143.64
3251,Weering,-38.19,143.64
3254,Cororooke,-38.3,143.52
3260,Bookaar,-38.13,143.1
3260,BostocksCreek,-38.13,143.1
3260,Bungador,-38.13,143.1
3260,Camperdown,-38.13,143.1
3260,Carpendeit,-38.13,143.1
3260,Chocolyn,-38.13,143.1
3260,Gnotuk,-38.13,143.1
3260,Kariah,-38.13,143.1
3260,Koallah,-38.13,143.1
3260,LeslieManor,-38.13,143.1
3260,Pomborneit,-38.13,143.1
3260,PomborneitNorth,-38.13,143.1
3260,Skibo,-38.13,143.1
3260,SouthPurrumbete,-38.13,143.1
3260,Stonyford,-38.13,143.1
3260,Tandarook,-38.13,143.1
3260,Tesbury,-38.13,143.1
3260,Weerite,-38.13,143.1
3264,Terang,-38.24,142.91
3265,Boorcan,-38.21,143.01
3265,Cudgee,-38.21,143.01
3265,Dixie,-38.21,143.01
3265,EcklinSouth,-38.21,143.01
3265,Ellerslie,-38.21,143.01
3265,Framlingham,-38.21,143.01
3265,FramlinghamEast,-38.21,143.01
3265,Garvoc,-38.21,143.01
3265,GlenormistonNorth,-38.21,143.01
3265,GlenormistonSouth,-38.21,143.01
3265,Kolora,-38.21,143.01
3265,Laang,-38.21,143.01
3265,Noorat,-38.21,143.01
3265,NooratEast,-38.21,143.01
3265,Panmure,-38.21,143.01
3265,Taroon,-38.21,143.01
3265,TheSisters,-38.21,143.01
3266,Bullaharre,-38.34,143.14
3266,Cobden,-38.34,143.14
3266,Cobrico,-38.34,143.14
3266,Elingamite,-38.34,143.14
3266,ElingamiteNorth,-38.34,143.14
3266,Glenfyne,-38.34,143.14
3266,Jancourt,-38.34,143.14
3266,JancourtEast,-38.34,143.14
3266,Naroghid,-38.34,143.14
3266,Simpson,-38.34,143.14
3267,ScottsCreek,-38.45,143.11
3268,Ayrford,-38.42,142.86
3268,Brucknell,-38.42,142.86
3268,Cooriemungle,-38.42,142.86
3268,CowleysCreek,-38.42,142.86
3268,CurdiesRiver,-38.42,142.86
3268,Curdievale,-38.42,142.86
3268,HeytesburyLower,-38.42,142.86
3268,Newfield,-38.42,142.86
3268,Nirranda,-38.42,142.86
3268,NirrandaEast,-38.42,142.86
3268,NirrandaSouth,-38.42,142.86
3268,Nullawarre,-38.42,142.86
3268,NullawarreNorth,-38.42,142.86
3268,Paaratte,-38.42,142.86
3268,TheCove,-38.42,142.86
3268,Timboon,-38.42,142.86
3268,TimboonWest,-38.42,142.86
3269,PortCampbell,-38.62,143
3269,Princetown,-38.62,143
3269,Waarre,-38.62,143
3270,Peterborough,-38.58,142.86
3271,Darlington,-38,143.05
3271,Dundonnell,-38,143.05
3271,PuraPura,-38,143.05
3272,Mortlake,-38.08,142.81
3272,Woorndoo,-38.08,142.81
3273,Hexham,-38.06,142.61
3274,Caramut,-37.91,142.52
3275,MailorsFlat,-38.3,142.46
3276,Minjah,-38.04,142.44
3276,Woolsthorpe,-38.04,142.44
3277,Allansford,-38.39,142.59
3277,Mepunga,-38.39,142.59
3277,MepungaEast,-38.39,142.59
3277,MepungaWest,-38.39,142.59
3277,Naringal,-38.39,142.59
3277,NaringalEast,-38.39,142.59
3278,Purnim,-38.28,142.62
3278,PurnimWest,-38.28,142.62
3279,Ballangeich,-38.21,142.66
3279,Wangoom,-38.21,142.66
3280,Dennington,-38.36,142.44
3280,Warrnambool,-38.36,142.44
3280,WarrnamboolEast,-38.36,142.44
3280,WarrnamboolWest,-38.36,142.44
3281,Bushfield,-38.33,142.51
3281,Grassmere,-38.33,142.51
3281,Winslow,-38.33,142.51
3281,Woodford,-38.33,142.51
3282,Illowa,-38.33,142.41
3282,Koroit,-38.33,142.41
3283,Crossley,-38.31,142.33
3283,Killarney,-38.31,142.33
3283,Kirkstall,-38.31,142.33
3283,SouthernCross,-38.31,142.33
3283,Tarrone,-38.31,142.33
3283,TowerHill,-38.31,142.33
3283,Warrong,-38.31,142.33
3283,Willatook,-38.31,142.33
3283,Yangery,-38.31,142.33
3283,Yarpturk,-38.31,142.33
3284,Orford,-38.21,142.15
3284,PortFairy,-38.21,142.15
3285,Codrington,-38.27,141.97
3285,Narrawong,-38.27,141.97
3285,Rosebrook,-38.27,141.97
3285,StHelens,-38.27,141.97
3285,Toolong,-38.27,141.97
3285,Tyrendarra,-38.27,141.97
3285,TyrendarraEast,-38.27,141.97
3285,Yambuk,-38.27,141.97
3286,CondahSwamp,-37.97,141.83
3286,Knebsworth,-37.97,141.83
3286,Macarthur,-37.97,141.83
3286,Warrabkook,-37.97,141.83
3287,Hawkesdale,-38.11,142.32
3287,Minhamite,-38.11,142.32
3289,Gazette,-37.9,142.17
3289,Gerrigerrup,-37.9,142.17
3289,Penshurst,-37.9,142.17
3289,Purdeet,-37.9,142.17
3289,Tabor,-37.9,142.17
3292,Nelson,-38.05,141.01
3293,Glenthompson,-37.64,142.55
3293,Nareeb,-37.64,142.55
3293,NarrapumelapSouth,-37.64,142.55
3294,Dunkeld,-37.65,142.34
3294,Karabeal,-37.65,142.34
3294,Mirranatwa,-37.65,142.34
3294,Moutajup,-37.65,142.34
3294,VictoriaPoint,-37.65,142.34
3294,VictoriaValley,-37.65,142.34
3294,Woodhouse,-37.65,142.34
3300,ByadukNorth,-37.88,141.96
3300,Hamilton,-37.88,141.96
3301,Bochara,-37.7,141.93
3301,Broadwater,-37.7,141.93
3301,BuckleySwamp,-37.7,141.93
3301,Byaduk,-37.7,141.93
3301,CroxtonEast,-37.7,141.93
3301,HensleyPark,-37.7,141.93
3301,Morgiana,-37.7,141.93
3301,MountNapier,-37.7,141.93
3301,Strathkellar,-37.7,141.93
3301,Tahara,-37.7,141.93
3301,Tarrington,-37.7,141.93
3301,Wannon,-37.7,141.93
3301,Warrayure,-37.7,141.93
3301,Yatchaw,-37.7,141.93
3301,Yulecart,-37.7,141.93
3302,Branxholme,-37.86,141.79
3302,Grassdale,-37.86,141.79
3303,BreakawayCreek,-38.03,141.81
3303,Condah,-38.03,141.81
3303,Hotspur,-38.03,141.81
3303,LakeCondah,-38.03,141.81
3303,Wallacedale,-38.03,141.81
3304,Bessiebelle,-38.15,141.97
3304,Dartmoor,-38.15,141.97
3304,DrikDrik,-38.15,141.97
3304,Drumborg,-38.15,141.97
3304,Greenwald,-38.15,141.97
3304,Heywood,-38.15,141.97
3304,Homerton,-38.15,141.97
3304,Lyons,-38.15,141.97
3304,Milltown,-38.15,141.97
3304,Mumbannar,-38.15,141.97
3304,Myamyn,-38.15,141.97
3304,Winnap,-38.15,141.97
3305,Allestree,-38.27,141.65
3305,Bolwarra,-38.27,141.65
3305,CapeBridgewater,-38.27,141.65
3305,Cashmore,-38.27,141.65
3305,DuttonWay,-38.27,141.65
3305,Gorae,-38.27,141.65
3305,GoraeWest,-38.27,141.65
3305,Heathmere,-38.27,141.65
3305,MountRichmond,-38.27,141.65
3305,Portland,-38.27,141.65
3305,PortlandNorth,-38.27,141.65
3305,PortlandWest,-38.27,141.65
3309,Digby,-37.79,141.5
3310,Merino,-37.72,141.55
3310,TaharaWest,-37.72,141.55
3311,Casterton,-37.58,141.41
3311,Corndale,-37.58,141.41
3312,Bahgallah,-37.64,141.37
3312,Brimboal,-37.64,141.37
3312,Carapook,-37.64,141.37
3312,Chetwynd,-37.64,141.37
3312,Dergholm,-37.64,141.37
3312,Dorodong,-37.64,141.37
3312,Dunrobin,-37.64,141.37
3312,Henty,-37.64,141.37
3312,Killara,-37.64,141.37
3312,LakeMundi,-37.64,141.37
3312,Lindsay,-37.64,141.37
3312,Nangeela,-37.64,141.37
3312,Poolaijelo,-37.64,141.37
3312,PowersCreek,-37.64,141.37
3312,Sandford,-37.64,141.37
3312,Strathdownie,-37.64,141.37
3312,WandoBridge,-37.64,141.37
3312,WandoVale,-37.64,141.37
3312,Warrock,-37.64,141.37
3314,Bulart,-37.59,141.94
3314,Cavendish,-37.59,141.94
3314,Glenisla,-37.59,141.94
3314,Grampians,-37.59,141.94
3314,Mooralla,-37.59,141.94
3315,BritBrit,-37.44,141.76
3315,CloverFlat,-37.44,141.76
3315,Coleraine,-37.44,141.76
3315,Coojar,-37.44,141.76
3315,Culla,-37.44,141.76
3315,Gringegalgona,-37.44,141.76
3315,Gritjurk,-37.44,141.76
3315,Hilgay,-37.44,141.76
3315,Konongwootong,-37.44,141.76
3315,MelvilleForest,-37.44,141.76
3315,Muntham,-37.44,141.76
3315,Nareen,-37.44,141.76
3315,Paschendale,-37.44,141.76
3315,TaharaBridge,-37.44,141.76
3315,Tarrayoukyan,-37.44,141.76
3315,Tarrenlea,-37.44,141.76
3315,WootongVale,-37.44,141.76
3317,Harrow,-37.12,141.6
3318,Charam,-36.99,141.51
3318,Connewirricoo,-36.99,141.51
3318,Edenhope,-36.99,141.51
3318,Kadnook,-36.99,141.51
3318,Langkoop,-36.99,141.51
3318,Patyah,-36.99,141.51
3318,Ullswater,-36.99,141.51
3319,Apsley,-36.97,141.08
3319,Benayeo,-36.97,141.08
3319,Bringalbert,-36.97,141.08
3321,Hesse,-38.11,143.86
3321,Inverleigh,-38.11,143.86
3321,Wingeel,-38.11,143.86
3322,Cressy,-38.03,143.64
3323,Berrybank,-37.99,143.49
3323,Duverney,-37.99,143.49
3323,Foxhow,-37.99,143.49
3324,Lismore,-37.95,143.34
3324,Mingay,-37.95,143.34
3324,MountBute,-37.95,143.34
3325,Derrinallum,-37.95,143.22
3325,Larralea,-37.95,143.22
3325,ViteVite,-37.95,143.22
3325,ViteViteNorth,-37.95,143.22
3328,Teesdale,-38.04,144.05
3329,BarunahPark,-38.02,143.86
3329,BarunahPlains,-38.02,143.86
3329,Shelford,-38.02,143.86
3330,Rokewood,-37.84,143.68
3331,Bannockburn,-38.05,144.17
3331,Gheringhap,-38.05,144.17
3331,Maude,-38.05,144.17
3331,RussellsBridge,-38.05,144.17
3331,SheOaks,-38.05,144.17
3331,Steiglitz,-38.05,144.17
3331,SutherlandsCreek,-38.05,144.17
3332,Lethbridge,-37.96,144.14
3333,Bamganie,-37.92,144.03
3333,Meredith,-37.92,144.03
3334,Bungal,-37.71,144.09
3334,Cargerie,-37.71,144.09
3334,Elaine,-37.71,144.09
3334,Morrisons,-37.71,144.09
3334,MountDoran,-37.71,144.09
3335,Plumpton,-37.69,144.69
3335,Rockbank,-37.69,144.69
3337,Kurunjang,-37.68,144.59
3337,Melton,-37.68,144.59
3337,MeltonWest,-37.68,144.59
3337,ToolernVale,-37.68,144.59
3338,Brookfield,-37.7,144.54
3338,Exford,-37.7,144.54
3338,Eynesbury,-37.7,144.54
3338,MeltonSouth,-37.7,144.54
3340,BacchusMarsh,-37.68,144.44
3340,Balliang,-37.68,144.44
3340,BalliangEast,-37.68,144.44
3340,Coimadai,-37.68,144.44
3340,Darley,-37.68,144.44
3340,Glenmore,-37.68,144.44
3340,HopetounPark,-37.68,144.44
3340,LongForest,-37.68,144.44
3340,Maddingley,-37.68,144.44
3340,Merrimu,-37.68,144.44
3340,Parwan,-37.68,144.44
3340,Rowsley,-37.68,144.44
3341,DalesCreek,-37.52,144.31
3341,Greendale,-37.52,144.31
3341,Korobeit,-37.52,144.31
3341,Myrniong,-37.52,144.31
3341,PentlandHills,-37.52,144.31
3342,Ballan,-37.6,144.23
3342,Beremboke,-37.6,144.23
3342,Blakeville,-37.6,144.23
3342,Bunding,-37.6,144.23
3342,Colbrook,-37.6,144.23
3342,Durdidwarrah,-37.6,144.23
3342,Fiskville,-37.6,144.23
3342,Ingliston,-37.6,144.23
3342,MountWallace,-37.6,144.23
3345,Gordon,-37.59,144.1
3350,Alfredton,-37.56,143.82
3350,BakeryHill,-37.56,143.82
3350,Ballarat,-37.56,143.82
3350,BallaratCentral,-37.56,143.82
3350,BallaratEast,-37.56,143.82
3350,BallaratNorth,-37.56,143.82
3350,BallaratWest,-37.56,143.82
3350,BlackHill,-37.56,143.82
3350,BrownHill,-37.56,143.82
3350,Canadian,-37.56,143.82
3350,Eureka,-37.56,143.82
3350,GoldenPoint,-37.56,143.82
3350,InvermayPark,-37.56,143.82
3350,LakeWendouree,-37.56,143.82
3350,MountClear,-37.56,143.82
3350,MountHelen,-37.56,143.82
3350,MountPleasant,-37.56,143.82
3350,Nerrina,-37.56,143.82
3350,Newington,-37.56,143.82
3350,Redan,-37.56,143.82
3350,SoldiersHill,-37.56,143.82
3351,Berringa,-37.77,143.68
3351,BoPeep,-37.77,143.68
3351,CapeClear,-37.77,143.68
3351,Carngham,-37.77,143.68
3351,Chepstowe,-37.77,143.68
3351,Haddon,-37.77,143.68
3351,Hillcrest,-37.77,143.68
3351,Illabarook,-37.77,143.68
3351,LakeBolac,-37.77,143.68
3351,Mininera,-37.77,143.68
3351,MountEmu,-37.77,143.68
3351,NerrinNerrin,-37.77,143.68
3351,Newtown,-37.77,143.68
3351,Nintingbool,-37.77,143.68
3351,Piggoreet,-37.77,143.68
3351,Pitfield,-37.77,143.68
3351,RokewoodJunction,-37.77,143.68
3351,RossCreek,-37.77,143.68
3351,Scarsdale,-37.77,143.68
3351,SmythesCreek,-37.77,143.68
3351,Smythesdale,-37.77,143.68
3351,SnakeValley,-37.77,143.68
3351,Springdallah,-37.77,143.68
3351,StaffordshireReef,-37.77,143.68
3351,Streatham,-37.77,143.68
3351,Wallinduc,-37.77,143.68
3351,Westmere,-37.77,143.68
3352,Addington,-37.38,143.67
3352,BallaratRoadsideDelivery,-37.38,143.67
3352,Blowhard,-37.38,143.67
3352,Bolwarrah,-37.38,143.67
3352,Bonshaw,-37.38,143.67
3352,Brewster,-37.38,143.67
3352,Bullarook,-37.38,143.67
3352,Bungaree,-37.38,143.67
3352,BunkersHill,-37.38,143.67
3352,Burrumbeet,-37.38,143.67
3352,CambrianHill,-37.38,143.67
3352,Cardigan,-37.38,143.67
3352,CardiganVillage,-37.38,143.67
3352,ChapelFlat,-37.38,143.67
3352,Clarendon,-37.38,143.67
3352,Claretown,-37.38,143.67
3352,ClarkesHill,-37.38,143.67
3352,Corindhap,-37.38,143.67
3352,Dereel,-37.38,143.67
3352,Dunnstown,-37.38,143.67
3352,DurhamLead,-37.38,143.67
3352,Enfield,-37.38,143.67
3352,Ercildoune,-37.38,143.67
3352,Garibaldi,-37.38,143.67
3352,GlenPark,-37.38,143.67
3352,Glenbrae,-37.38,143.67
3352,GongGong,-37.38,143.67
3352,Grenville,-37.38,143.67
3352,Invermay,-37.38,143.67
3352,LalLal,-37.38,143.67
3352,Lamplough,-37.38,143.67
3352,LangiKalKal,-37.38,143.67
3352,Learmonth,-37.38,143.67
3352,LeighCreek,-37.38,143.67
3352,Lexton,-37.38,143.67
3352,Magpie,-37.38,143.67
3352,Millbrook,-37.38,143.67
3352,MinersRest,-37.38,143.67
3352,MitchellPark,-37.38,143.67
3352,Mollongghip,-37.38,143.67
3352,MountBolton,-37.38,143.67
3352,MountEgerton,-37.38,143.67
3352,MountMercer,-37.38,143.67
3352,MountRowan,-37.38,143.67
3352,Napoleons,-37.38,143.67
3352,Navigators,-37.38,143.67
3352,Pootilla,-37.38,143.67
3352,ScotchmansLead,-37.38,143.67
3352,Scotsburn,-37.38,143.67
3352,Springbank,-37.38,143.67
3352,Sulky,-37.38,143.67
3352,Wallace,-37.38,143.67
3352,Warrenheip,-37.38,143.67
3352,WattleFlat,-37.38,143.67
3352,Waubra,-37.38,143.67
3352,Weatherboard,-37.38,143.67
3352,Werneth,-37.38,143.67
3352,Windermere,-37.38,143.67
3352,Yendon,-37.38,143.67
3353,Ballarat,-37.78,144.84
3354,BakeryHill,-37.56,143.87
3354,BallaratMC,-37.56,143.87
3355,LakeGardens,-37.55,143.82
3355,MitchellPark,-37.55,143.82
3355,Wendouree,-37.55,143.82
3355,WendoureeVillage,-37.55,143.82
3356,Delacombe,-37.59,143.83
3356,Sebastopol,-37.59,143.83
3357,Buninyong,-37.65,143.92
3357,ScotsmansLead,-37.65,143.92
3360,HappyValley,-37.69,143.56
3360,Linton,-37.69,143.56
3360,Mannibadar,-37.69,143.56
3360,Pittong,-37.69,143.56
3360,Willowvale,-37.69,143.56
3361,Bradvale,-37.78,143.41
3361,Carranballac,-37.78,143.41
3361,Skipton,-37.78,143.41
3363,Creswick,-37.42,143.89
3363,CreswickNorth,-37.42,143.89
3363,Dean,-37.42,143.89
3363,Glendaruel,-37.42,143.89
3363,LangdonsHill,-37.42,143.89
3363,MountBeckworth,-37.42,143.89
3363,Tourello,-37.42,143.89
3364,Allendale,-37.37,143.94
3364,Ascot,-37.37,143.94
3364,BaldHills,-37.37,143.94
3364,Barkstead,-37.37,143.94
3364,Blampied,-37.37,143.94
3364,Broomfield,-37.37,143.94
3364,CabbageTree,-37.37,143.94
3364,Campbelltown,-37.37,143.94
3364,CoghillsCreek,-37.37,143.94
3364,Glendonald,-37.37,143.94
3364,Kingston,-37.37,143.94
3364,Kooroocheang,-37.37,143.94
3364,Lawrence,-37.37,143.94
3364,MountProspect,-37.37,143.94
3364,Newlyn,-37.37,143.94
3364,NewlynNorth,-37.37,143.94
3364,Rocklyn,-37.37,143.94
3364,Smeaton,-37.37,143.94
3364,Smokeytown,-37.37,143.94
3364,Springmount,-37.37,143.94
3364,Strathlea,-37.37,143.94
3364,Werona,-37.37,143.94
3370,Clunes,-37.29,143.79
3370,Glengower,-37.29,143.79
3370,MountCameron,-37.29,143.79
3370,Ullina,-37.29,143.79
3371,Amherst,-37.15,143.67
3371,Burnbank,-37.15,143.67
3371,Caralulup,-37.15,143.67
3371,Dunach,-37.15,143.67
3371,Evansford,-37.15,143.67
3371,Lillicur,-37.15,143.67
3371,MountGlasgow,-37.15,143.67
3371,RedLion,-37.15,143.67
3371,StonyCreek,-37.15,143.67
3371,Talbot,-37.15,143.67
3373,Beaufort,-37.43,143.38
3373,Chute,-37.43,143.38
3373,CrossRoads,-37.43,143.38
3373,LakeGoldsmith,-37.43,143.38
3373,LakeWongan,-37.43,143.38
3373,MainLead,-37.43,143.38
3373,MenaPark,-37.43,143.38
3373,Nerring,-37.43,143.38
3373,Raglan,-37.43,143.38
3373,StockyardHill,-37.43,143.38
3373,Stoneleigh,-37.43,143.38
3373,Trawalla,-37.43,143.38
3373,Waterloo,-37.43,143.38
3374,GreatWestern,0,0
3375,Ballyrogan,-37.43,143.13
3375,Bayindeen,-37.43,143.13
3375,Buangor,-37.43,143.13
3375,MiddleCreek,-37.43,143.13
3377,Ararat,-37.28,142.93
3377,Armstrong,-37.28,142.93
3377,Bulgana,-37.28,142.93
3377,Cathcart,-37.28,142.93
3377,Crowlands,-37.28,142.93
3377,DenicullCreek,-37.28,142.93
3377,Dobie,-37.28,142.93
3377,Dunneworthy,-37.28,142.93
3377,Eversley,-37.28,142.93
3377,LangiLogan,-37.28,142.93
3377,Maroona,-37.28,142.93
3377,MountCole,-37.28,142.93
3377,MountColeCreek,-37.28,142.93
3377,Moyston,-37.28,142.93
3377,Norval,-37.28,142.93
3377,Rhymney,-37.28,142.93
3377,RockyPoint,-37.28,142.93
3377,Rossbridge,-37.28,142.93
3377,ShaysFlat,-37.28,142.93
3377,Warrak,-37.28,142.93
3378,Tatyoon,-37.53,142.94
3378,Yalla-Y-Poora,-37.53,142.94
3379,BornesHill,-37.53,142.52
3379,Chatsworth,-37.53,142.52
3379,Mafeking,-37.53,142.52
3379,Stavely,-37.53,142.52
3379,Wickliffe,-37.53,142.52
3379,Willaura,-37.53,142.52
3379,WillauraNorth,-37.53,142.52
3380,Stawell,-37.16,142.7
3380,StawellWest,-37.16,142.7
3381,Bellellen,-36.94,143.21
3381,Bellfield,-36.94,143.21
3381,BlackRange,-36.94,143.21
3381,FyansCreek,-36.94,143.21
3381,HallsGap,-36.94,143.21
3381,Illawarra,-36.94,143.21
3381,LakeFyans,-36.94,143.21
3381,LakeLonsdale,-36.94,143.21
3381,Mokepilly,-36.94,143.21
3381,MountDryden,-36.94,143.21
3381,Pomonal,-36.94,143.21
3384,Barkly,-36.98,143.2
3384,Concongella,-36.98,143.2
3384,Frenchmans,-36.98,143.2
3384,JoelJoel,-36.98,143.2
3384,JoelSouth,-36.98,143.2
3384,Landsborough,-36.98,143.2
3384,LandsboroughWest,-36.98,143.2
3384,Navarre,-36.98,143.2
3384,Tulkara,-36.98,143.2
3384,WattleCreek,-36.98,143.2
3385,DadswellsBridge,-36.92,142.51
3385,DeepLead,-36.92,142.51
3385,Glenorchy,-36.92,142.51
3385,Ledcourt,-36.92,142.51
3385,Lubeck,-36.92,142.51
3385,Riachella,-36.92,142.51
3385,RosesGap,-36.92,142.51
3385,WalWal,-36.92,142.51
3387,Bolangum,-36.67,142.87
3387,Callawadda,-36.67,142.87
3387,CampbellsBridge,-36.67,142.87
3387,Germania,-36.67,142.87
3387,GreensCreek,-36.67,142.87
3387,Kanya,-36.67,142.87
3387,Marnoo,-36.67,142.87
3387,MarnooWest,-36.67,142.87
3387,MorrlMorrl,-36.67,142.87
3387,Wallaloo,-36.67,142.87
3387,WallalooEast,-36.67,142.87
3388,Banyena,-36.57,142.82
3388,Rupanyup,-36.57,142.82
3390,Kewell,-36.45,142.42
3390,Murtoa,-36.45,142.42
3391,Brim,-36.07,142.52
3392,Boolite,-36.46,142.59
3392,Minyip,-36.46,142.59
3392,SheepHills,-36.46,142.59
3393,Aubrey,-36.33,142.36
3393,Bangerang,-36.33,142.36
3393,Cannum,-36.33,142.36
3393,Crymelon,-36.33,142.36
3393,Kellalac,-36.33,142.36
3393,Lah,-36.33,142.36
3393,Warracknabeal,-36.33,142.36
3393,Wilkur,-36.33,142.36
3393,Willenabrina,-36.33,142.36
3395,Beulah,-35.94,142.42
3395,Kenmare,-35.94,142.42
3395,ReedyDam,-35.94,142.42
3395,Rosebery,-35.94,142.42
3396,Hopetoun,-35.73,142.36
3400,Horsham,-36.71,142.2
3400,HorshamWest,-36.71,142.2
3401,Blackheath,-36.46,142.31
3401,Brimpaen,-36.46,142.31
3401,Bungalally,-36.46,142.31
3401,Cherrypool,-36.46,142.31
3401,Dooen,-36.46,142.31
3401,Drung,-36.46,142.31
3401,Gymbowen,-36.46,142.31
3401,Haven,-36.46,142.31
3401,Jung,-36.46,142.31
3401,Kalkee,-36.46,142.31
3401,Kanagulk,-36.46,142.31
3401,Karnak,-36.46,142.31
3401,Laharum,-36.46,142.31
3401,Longerenong,-36.46,142.31
3401,LowerNorton,-36.46,142.31
3401,MckenzieCreek,-36.46,142.31
3401,Mockinya,-36.46,142.31
3401,MurraWarra,-36.46,142.31
3401,Nurcoung,-36.46,142.31
3401,Nurrabiel,-36.46,142.31
3401,Pimpinio,-36.46,142.31
3401,Quantong,-36.46,142.31
3401,Riverside,-36.46,142.31
3401,Rocklands,-36.46,142.31
3401,StHelensPlains,-36.46,142.31
3401,TelangatukEast,-36.46,142.31
3401,Toolondo,-36.46,142.31
3401,Vectis,-36.46,142.31
3401,Wail,-36.46,142.31
3401,Wallup,-36.46,142.31
3401,Wartook,-36.46,142.31
3401,Wonwondah,-36.46,142.31
3401,Zumsteins,-36.46,142.31
3402,Horsham,-37.16,142.67
3407,Balmoral,-37.25,141.84
3407,Englefield,-37.25,141.84
3407,Gatum,-37.25,141.84
3407,PigeonPonds,-37.25,141.84
3407,Vasey,-37.25,141.84
3409,Arapiles,-36.78,141.76
3409,ClearLake,-36.78,141.76
3409,Douglas,-36.78,141.76
3409,Duchembegarra,-36.78,141.76
3409,GrassFlat,-36.78,141.76
3409,Jilpanger,-36.78,141.76
3409,MigaLake,-36.78,141.76
3409,Mitre,-36.78,141.76
3409,Natimuk,-36.78,141.76
3409,Noradjuha,-36.78,141.76
3409,Tooan,-36.78,141.76
3409,Wombelano,-36.78,141.76
3412,Goroke,-36.75,141.47
3413,Minimay,-36.71,141.18
3413,Neuarpurr,-36.71,141.18
3413,Ozenkadnook,-36.71,141.18
3413,Peronne,-36.71,141.18
3414,Antwerp,-36.3,142.02
3414,Dimboola,-36.3,142.02
3414,Tarranyurk,-36.3,142.02
3415,Miram,-36.38,141.36
3418,Broughton,-36.17,141.33
3418,GerangGerung,-36.17,141.33
3418,Glenlee,-36.17,141.33
3418,Kiata,-36.17,141.33
3418,Lawloit,-36.17,141.33
3418,LittleDesert,-36.17,141.33
3418,Lorquon,-36.17,141.33
3418,Netherby,-36.17,141.33
3418,Nhill,-36.17,141.33
3418,Yanac,-36.17,141.33
3419,Kaniva,-36.38,141.24
3420,Lillimur,-36.36,141.12
3420,Serviceton,-36.36,141.12
3420,TelopeaDowns,-36.36,141.12
3423,Jeparit,-36.14,141.99
3424,Albacutya,-35.69,141.97
3424,Rainbow,-35.69,141.97
3424,Yaapeet,-35.69,141.97
3427,DiggersRest,-37.63,144.72
3428,Bulla,-37.64,144.8
3429,Sunbury,-37.58,144.73
3429,Wildwood,-37.58,144.73
3430,Clarkefield,-37.48,144.75
3431,RiddellsCreek,-37.46,144.67
3432,Bolinda,-37.43,144.78
3433,Monegeetta,0,0
3434,Cherokee,-37.39,144.64
3434,Kerrie,-37.39,144.64
3434,Romsey,-37.39,144.64
3434,Springfield,-37.39,144.64
3435,Benloch,-37.19,144.69
3435,Goldie,-37.19,144.69
3435,Lancefield,-37.19,144.69
3435,NullaVale,-37.19,144.69
3437,Bullengarook,-37.52,144.48
3437,Gisborne,-37.52,144.48
3437,GisborneSouth,-37.52,144.48
3438,NewGisborne,-37.46,144.6
3440,Macedon,-37.4,144.59
3441,MountMacedon,-37.4,144.59
3442,Ashbourne,-37.39,144.45
3442,Cadello,-37.39,144.45
3442,Carlsruhe,-37.39,144.45
3442,Cobaw,-37.39,144.45
3442,Hesket,-37.39,144.45
3442,Newham,-37.39,144.45
3442,Rochford,-37.39,144.45
3442,Woodend,-37.39,144.45
3442,WoodendNorth,-37.39,144.45
3444,Barfold,-37.09,144.51
3444,Baynton,-37.09,144.51
3444,BayntonEast,-37.09,144.51
3444,Edgecombe,-37.09,144.51
3444,Glenhope,-37.09,144.51
3444,Greenhill,-37.09,144.51
3444,Kyneton,-37.09,144.51
3444,KynetonSouth,-37.09,144.51
3444,Langley,-37.09,144.51
3444,Lauriston,-37.09,144.51
3444,Lyal,-37.09,144.51
3444,MetcalfeEast,-37.09,144.51
3444,MiaMia,-37.09,144.51
3444,MyrtleCreek,-37.09,144.51
3444,Pastoria,-37.09,144.51
3444,PastoriaEast,-37.09,144.51
3444,PipersCreek,-37.09,144.51
3444,Redesdale,-37.09,144.51
3444,Sidonia,-37.09,144.51
3444,SpringHill,-37.09,144.51
3444,Tylden,-37.09,144.51
3444,TyldenSouth,-37.09,144.51
3446,DrummondNorth,-37.2,144.29
3446,Malmsbury,-37.2,144.29
3447,Taradale,-37.13,144.36
3448,Elphinstone,-37.11,144.34
3448,Metcalfe,-37.11,144.34
3448,SuttonGrange,-37.11,144.34
3450,Castlemaine,-37.06,144.22
3450,MoonlightFlat,-37.06,144.22
3451,BarkersCreek,-37.03,144.24
3451,CampbellsCreek,-37.03,144.24
3451,Chewton,-37.03,144.24
3451,ChewtonBushlands,-37.03,144.24
3451,Faraday,-37.03,144.24
3451,Fryerstown,-37.03,144.24
3451,Glenluce,-37.03,144.24
3451,GoldenPoint,-37.03,144.24
3451,Gower,-37.03,144.24
3451,Guildford,-37.03,144.24
3451,Irishtown,-37.03,144.24
3451,MckenzieHill,-37.03,144.24
3451,Muckleford,-37.03,144.24
3451,Tarilta,-37.03,144.24
3451,Vaughan,-37.03,144.24
3451,Yapeen,-37.03,144.24
3453,Harcourt,-37,144.26
3453,HarcourtNorth,-37,144.26
3453,Ravenswood,-37,144.26
3453,RavenswoodSouth,-37,144.26
3458,BarrysReef,-37.45,144.29
3458,Blackwood,-37.45,144.29
3458,FernHill,-37.45,144.29
3458,Lerderderg,-37.45,144.29
3458,LittleHampton,-37.45,144.29
3458,Newbury,-37.45,144.29
3458,NorthBlackwood,-37.45,144.29
3458,Trentham,-37.45,144.29
3458,TrenthamEast,-37.45,144.29
3460,Basalt,-37.31,144.09
3460,Daylesford,-37.31,144.09
3461,Bullarto,-37.39,144.22
3461,BullartoSouth,-37.39,144.22
3461,Clydesdale,-37.39,144.22
3461,Coomoora,-37.39,144.22
3461,Denver,-37.39,144.22
3461,Drummond,-37.39,144.22
3461,DryDiggings,-37.39,144.22
3461,Eganstown,-37.39,144.22
3461,ElevatedPlains,-37.39,144.22
3461,Franklinford,-37.39,144.22
3461,Glenlyon,-37.39,144.22
3461,Hepburn,-37.39,144.22
3461,HepburnSprings,-37.39,144.22
3461,Korweinguboora,-37.39,144.22
3461,LeonardsHill,-37.39,144.22
3461,Lyonville,-37.39,144.22
3461,MountFranklin,-37.39,144.22
3461,Musk,-37.39,144.22
3461,MuskVale,-37.39,144.22
3461,PorcupineRidge,-37.39,144.22
3461,SailorsFalls,-37.39,144.22
3461,SailorsHill,-37.39,144.22
3461,ShepherdsFlat,-37.39,144.22
3461,SpargoCreek,-37.39,144.22
3461,Strangways,-37.39,144.22
3461,Wheatsheaf,-37.39,144.22
3461,Yandoit,-37.39,144.22
3461,YandoitHills,-37.39,144.22
3462,GreenGully,-37.11,144.1
3462,JoycesCreek,-37.11,144.1
3462,MucklefordSouth,-37.11,144.1
3462,Newstead,-37.11,144.1
3462,Sandon,-37.11,144.1
3462,WelshmansReef,-37.11,144.1
3463,Baringhup,-36.98,143.95
3463,BaringhupWest,-36.98,143.95
3463,Bradford,-36.98,143.95
3463,Eastville,-36.98,143.95
3463,Laanecoorie,-36.98,143.95
3463,Maldon,-36.98,143.95
3463,Neereman,-36.98,143.95
3463,Nuggetty,-36.98,143.95
3463,Shelbourne,-36.98,143.95
3463,Tarrengower,-36.98,143.95
3463,Walmer,-36.98,143.95
3463,WoodstockWest,-36.98,143.95
3464,Carisbrook,-37.01,143.8
3465,AdelaideLead,-37.07,143.68
3465,Alma,-37.07,143.68
3465,Bowenvale,-37.07,143.68
3465,BungBong,-37.07,143.68
3465,Cotswold,-37.07,143.68
3465,Craigie,-37.07,143.68
3465,DaisyHill,-37.07,143.68
3465,Flagstaff,-37.07,143.68
3465,GoldenPoint,-37.07,143.68
3465,Havelock,-37.07,143.68
3465,Homebush,-37.07,143.68
3465,Majorca,-37.07,143.68
3465,Maryborough,-37.07,143.68
3465,Moolort,-37.07,143.68
3465,MoonlightFlat,-37.07,143.68
3465,NatteYallock,-37.07,143.68
3465,Rathscar,-37.07,143.68
3465,RathscarWest,-37.07,143.68
3465,Simson,-37.07,143.68
3465,Timor,-37.07,143.68
3465,TimorWest,-37.07,143.68
3465,Wareek,-37.07,143.68
3467,Avoca,-37.09,143.47
3468,Amphitheatre,-37.18,143.4
3468,MountLonarch,-37.18,143.4
3469,Elmhurst,-37.18,143.25
3469,Glenlofty,-37.18,143.25
3469,Glenlogie,-37.18,143.25
3469,Glenpatrick,-37.18,143.25
3469,NowhereCreek,-37.18,143.25
3472,BetBet,-36.92,143.76
3472,Betley,-36.92,143.76
3472,Bromley,-36.92,143.76
3472,Dunluce,-36.92,143.76
3472,Dunolly,-36.92,143.76
3472,Eddington,-36.92,143.76
3472,Goldsborough,-36.92,143.76
3472,Inkerman,-36.92,143.76
3472,Mcintyre,-36.92,143.76
3472,Moliagul,-36.92,143.76
3472,MountHooghly,-36.92,143.76
3475,Archdale,-36.83,143.5
3475,ArchdaleJunction,-36.83,143.5
3475,Bealiba,-36.83,143.5
3475,BurkesFlat,-36.83,143.5
3475,CochranesCreek,-36.83,143.5
3475,Emu,-36.83,143.5
3475,Logan,-36.83,143.5
3477,AvonPlains,0,0
3477,BeazleysBridge,0,0
3477,Carapooee,0,0
3477,CarapooeeWest,0,0
3477,CoonooerBridge,0,0
3477,CoonooerWest,0,0
3477,Dalyenong,0,0
3477,Gooroc,0,0
3477,GowarEast,0,0
3477,GraysBridge,0,0
3477,GreGre,0,0
3477,GreGreNorth,0,0
3477,GreGreSouth,0,0
3477,Kooreh,0,0
3477,MarnooEast,0,0
3477,Moolerr,0,0
3477,Moyreisk,0,0
3477,Paradise,0,0
3477,Redbank,0,0
3477,Rostron,0,0
3477,SlatyCreek,0,0
3477,StArnaudEast,0,0
3477,StArnaudNorth,0,0
3477,StuartMill,0,0
3477,Sutherland,0,0
3477,Swanwater,0,0
3477,Tottington,0,0
3477,TraynorsLagoon,0,0
3477,Winjallok,0,0
3477,YorkPlains,0,0
3478,Dooboobetic,-36.54,142.92
3478,Medlyn,-36.54,142.92
3478,Moonambel,-36.54,142.92
3478,Percydale,-36.54,142.92
3478,StArnaud,-36.54,142.92
3478,Tanwood,-36.54,142.92
3478,Warrenmang,-36.54,142.92
3478,YawongHills,-36.54,142.92
3480,Areegra,-36.24,142.69
3480,Carron,-36.24,142.69
3480,CopeCope,-36.24,142.69
3480,Corack,-36.24,142.69
3480,CorackEast,-36.24,142.69
3480,Donald,-36.24,142.69
3480,GilGil,-36.24,142.69
3480,Jeffcott,-36.24,142.69
3480,JeffcottNorth,-36.24,142.69
3480,Laen,-36.24,142.69
3480,LaenEast,-36.24,142.69
3480,LaenNorth,-36.24,142.69
3480,LakeBuloke,-36.24,142.69
3480,Lawler,-36.24,142.69
3480,Litchfield,-36.24,142.69
3480,RichAvon,-36.24,142.69
3480,RichAvonEast,-36.24,142.69
3480,RichAvonWest,-36.24,142.69
3480,SwanwaterWest,-36.24,142.69
3482,Massey,-36.23,142.86
3482,MortonPlains,-36.23,142.86
3482,Warmur,-36.23,142.86
3482,Watchem,-36.23,142.86
3482,WatchemWest,-36.23,142.86
3483,Ballapur,-35.98,142.75
3483,Birchip,-35.98,142.75
3483,BirchipWest,-35.98,142.75
3483,Curyo,-35.98,142.75
3483,JilJil,-35.98,142.75
3483,Karyrie,-35.98,142.75
3483,Kinnabulla,-35.98,142.75
3483,Marlbed,-35.98,142.75
3483,Narraport,-35.98,142.75
3483,Whirily,-35.98,142.75
3485,Banyan,-35.64,142.77
3485,Watchupga,-35.64,142.77
3485,Willangie,-35.64,142.77
3485,Woomelang,-35.64,142.77
3487,Lascelles,-35.61,142.58
3488,Speed,-35.4,142.44
3488,Turriff,-35.4,142.44
3488,TurriffEast,-35.4,142.44
3489,Tempy,-35.34,142.48
3490,BigDesert,-35.2,141.6
3490,Boinka,-35.2,141.6
3490,Kulwin,-35.2,141.6
3490,Mittyack,-35.2,141.6
3490,Murray-Sunset,-35.2,141.6
3490,Ouyen,-35.2,141.6
3490,Torrita,-35.2,141.6
3490,Tutye,-35.2,141.6
3491,Patchewollock,-35.38,142.19
3494,Carwarp,-34.46,142.23
3494,Colignan,-34.46,142.23
3494,Iraak,-34.46,142.23
3494,Nangiloc,-34.46,142.23
3496,Cardross,-34.29,142.15
3496,Cullulleraine,-34.29,142.15
3496,LindsayPoint,-34.29,142.15
3496,Meringur,-34.29,142.15
3496,Merrinee,-34.29,142.15
3496,NedsCorner,-34.29,142.15
3496,RedCliffs,-34.29,142.15
3496,Sunnycliffs,-34.29,142.15
3496,Werrimull,-34.29,142.15
3498,Irymple,-34.23,142.18
3500,Mildura,-34.18,142.16
3500,MilduraWest,-34.18,142.16
3500,Paringi,-34.18,142.16
3501,Hattah,-34.85,142.33
3501,Koorlong,-34.85,142.33
3501,MilduraCentrePlaza,-34.85,142.33
3501,MilduraSouth,-34.85,142.33
3501,NicholsPoint,-34.85,142.33
3502,Mildura,-37.97,145.26
3505,Birdwoodton,-34.2,142.06
3505,Cabarita,-34.2,142.06
3505,Merbein,-34.2,142.06
3505,MerbeinSouth,-34.2,142.06
3505,MerbeinWest,-34.2,142.06
3505,Wargan,-34.2,142.06
3505,Yelta,-34.2,142.06
3506,Cowangie,-35.28,141.4
3507,Walpeup,-35.19,142.02
3509,Linga,-35.17,141.69
3509,Underbool,-35.17,141.69
3512,Carina,-35.22,141.09
3512,Murrayville,-35.22,141.09
3512,Panitya,-35.22,141.09
3515,Marong,-36.74,144.13
3515,Shelbourne,-36.74,144.13
3515,WilsonsHill,-36.74,144.13
3516,Bridgewater,-36.59,143.92
3516,BridgewaterNorth,-36.59,143.92
3516,BridgewaterOnLoddon,-36.59,143.92
3516,Derby,-36.59,143.92
3516,Leichardt,-36.59,143.92
3516,Yarraberb,-36.59,143.92
3517,BearsLagoon,-36.3,143.92
3517,Brenanah,-36.3,143.92
3517,Glenalbyn,-36.3,143.92
3517,Inglewood,-36.3,143.92
3517,Jarklin,-36.3,143.92
3517,Kingower,-36.3,143.92
3517,Kurting,-36.3,143.92
3517,PowlettPlains,-36.3,143.92
3517,Rheola,-36.3,143.92
3517,SalisburyWest,-36.3,143.92
3517,Serpentine,-36.3,143.92
3518,Berrimal,-36.5,143.46
3518,Borung,-36.5,143.46
3518,FentonsCreek,-36.5,143.46
3518,Fernihurst,-36.5,143.46
3518,FieryFlat,-36.5,143.46
3518,Kurraca,-36.5,143.46
3518,KurracaWest,-36.5,143.46
3518,Mysia,-36.5,143.46
3518,NineMile,-36.5,143.46
3518,RichmondPlains,-36.5,143.46
3518,SkinnersFlat,-36.5,143.46
3518,Wedderburn,-36.5,143.46
3518,WedderburnJunction,-36.5,143.46
3518,Wehla,-36.5,143.46
3518,WoolshedFlat,-36.5,143.46
3518,Woosang,-36.5,143.46
3520,Kinypanial,-36.33,143.84
3520,KorongVale,-36.33,143.84
3521,Pyalong,-37.12,144.88
3522,GlenhopeEast,-37.13,144.75
3522,Tooborac,-37.13,144.75
3523,Argyle,-36.94,144.73
3523,Costerfield,-36.94,144.73
3523,Derrinal,-36.94,144.73
3523,Heathcote,-36.94,144.73
3523,HeathcoteSouth,-36.94,144.73
3523,Knowsley,-36.94,144.73
3523,LadysPass,-36.94,144.73
3523,MoormboolWest,-36.94,144.73
3523,MountCamel,-36.94,144.73
3523,Redcastle,-36.94,144.73
3525,Barrakee,-36.27,143.43
3525,Buckrabanyule,-36.27,143.43
3525,Charlton,-36.27,143.43
3525,Chirrip,-36.27,143.43
3525,GraniteFlat,-36.27,143.43
3525,LakeMarmal,-36.27,143.43
3525,Nareewillock,-36.27,143.43
3525,Terrappee,-36.27,143.43
3525,Wooroonook,-36.27,143.43
3525,Wychitella,-36.27,143.43
3525,WychitellaNorth,-36.27,143.43
3525,Yeungroon,-36.27,143.43
3525,YeungroonEast,-36.27,143.43
3527,Bunguluke,-36.06,143.39
3527,Dumosa,-36.06,143.39
3527,Glenloth,-36.06,143.39
3527,GlenlothEast,-36.06,143.39
3527,Jeruk,-36.06,143.39
3527,Ninyeunook,-36.06,143.39
3527,Teddywaddy,-36.06,143.39
3527,TeddywaddyWest,-36.06,143.39
3527,Thalia,-36.06,143.39
3527,Towaninny,-36.06,143.39
3527,TowaninnySouth,-36.06,143.39
3527,Wycheproof,-36.06,143.39
3527,WycheproofSouth,-36.06,143.39
3529,Kalpienung,-35.78,143.26
3529,Nullawil,-35.78,143.26
3530,Culgoa,-35.72,143.11
3530,Sutton,-35.72,143.11
3530,Wangie,-35.72,143.11
3530,Warne,-35.72,143.11
3531,Berriwillock,-35.64,142.99
3531,Boigbeat,-35.64,142.99
3533,Bimbourie,-35.36,142.79
3533,LakeTyrrell,-35.36,142.79
3533,Myall,-35.36,142.79
3533,Nandaly,-35.36,142.79
3533,Ninda,-35.36,142.79
3533,Nyarrin,-35.36,142.79
3533,PierMilan,-35.36,142.79
3533,SeaLake,-35.36,142.79
3533,Straten,-35.36,142.79
3533,Tyenna,-35.36,142.79
3533,Tyrrell,-35.36,142.79
3533,TyrrellDowns,-35.36,142.79
3537,Barraport,-36.01,143.67
3537,BarraportWest,-36.01,143.67
3537,Boort,-36.01,143.67
3537,CanaryIsland,-36.01,143.67
3537,Catumnal,-36.01,143.67
3537,Gredgwin,-36.01,143.67
3537,Leaghur,-36.01,143.67
3537,Minmindie,-36.01,143.67
3537,Yando,-36.01,143.67
3540,Cannie,-35.76,143.45
3540,Oakvale,-35.76,143.45
3540,Quambatook,-35.76,143.45
3542,Cokum,-35.76,143.28
3542,Lalbert,-35.76,143.28
3542,Tittybong,-35.76,143.28
3544,Chinangin,-35.51,143.2
3544,Gowanford,-35.51,143.2
3544,Murnungin,-35.51,143.2
3544,Springfield,-35.51,143.2
3544,Ultima,-35.51,143.2
3544,UltimaEast,-35.51,143.2
3544,Waitchie,-35.51,143.2
3546,Bolton,-34.96,142.88
3546,Chinkapook,-34.96,142.88
3546,Cocamba,-34.96,142.88
3546,Gerahmin,-34.96,142.88
3546,Manangatang,-34.96,142.88
3546,Turoar,-34.96,142.88
3546,Winnambool,-34.96,142.88
3549,Annuello,-34.85,142.83
3549,Bannerton,-34.85,142.83
3549,HappyValley,-34.85,142.83
3549,Liparoo,-34.85,142.83
3549,Robinvale,-34.85,142.83
3549,RobinvaleIrrigationDistrictSectionB,-34.85,142.83
3549,RobinvaleIrrigationDistrictSectionC,-34.85,142.83
3549,RobinvaleIrrigationDistrictSectionD,-34.85,142.83
3549,RobinvaleIrrigationDistrictSectionE,-34.85,142.83
3549,TolTol,-34.85,142.83
3549,Wandown,-34.85,142.83
3549,Wemen,-34.85,142.83
3550,Bendigo,-36.76,144.28
3550,BendigoSouth,-36.76,144.28
3550,EastBendigo,-36.76,144.28
3550,FloraHill,-36.76,144.28
3550,Ironbark,-36.76,144.28
3550,Kennington,-36.76,144.28
3550,LongGully,-36.76,144.28
3550,NorthBendigo,-36.76,144.28
3550,QuarryHill,-36.76,144.28
3550,SandhurstEast,-36.76,144.28
3550,SpringGully,-36.76,144.28
3550,Strathdale,-36.76,144.28
3550,WestBendigo,-36.76,144.28
3550,WhiteHills,-36.76,144.28
3551,Arnold,-36.69,143.87
3551,ArnoldWest,-36.69,143.87
3551,Ascot,-36.69,143.87
3551,AxeCreek,-36.69,143.87
3551,Axedale,-36.69,143.87
3551,Bagshot,-36.69,143.87
3551,BagshotNorth,-36.69,143.87
3551,BendigoForward,-36.69,143.87
3551,Cornella,-36.69,143.87
3551,EmuCreek,-36.69,143.87
3551,Eppalock,-36.69,143.87
3551,Epsom,-36.69,143.87
3551,Huntly,-36.69,143.87
3551,HuntlyNorth,-36.69,143.87
3551,Junortoun,-36.69,143.87
3551,Kimbolton,-36.69,143.87
3551,LakeEppalock,-36.69,143.87
3551,Llanelly,-36.69,143.87
3551,Lockwood,-36.69,143.87
3551,LockwoodSouth,-36.69,143.87
3551,Longlea,-36.69,143.87
3551,MaidenGully,-36.69,143.87
3551,Mandurang,-36.69,143.87
3551,MandurangSouth,-36.69,143.87
3551,Minto,-36.69,143.87
3551,MurphysCreek,-36.69,143.87
3551,Myola,-36.69,143.87
3551,Newbridge,-36.69,143.87
3551,Painswick,-36.69,143.87
3551,Sedgwick,-36.69,143.87
3551,Strathfieldsaye,-36.69,143.87
3551,Tarnagulla,-36.69,143.87
3551,Toolleen,-36.69,143.87
3551,Waanyarra,-36.69,143.87
3551,Wellsford,-36.69,143.87
3551,WoodstockOnLoddon,-36.69,143.87
3552,Bendigo,-37.83,145.01
3554,BendigoDC,0,0
3555,BigHill,-36.83,144.23
3555,GoldenGully,-36.83,144.23
3555,GoldenSquare,-36.83,144.23
3555,KangarooFlat,-36.83,144.23
3555,LansellPlaza,-36.83,144.23
3556,CaliforniaGully,-36.73,144.26
3556,CampbellsForest,-36.73,144.26
3556,Eaglehawk,-36.73,144.26
3556,EaglehawkNorth,-36.73,144.26
3556,JackassFlat,-36.73,144.26
3556,MyersFlat,-36.73,144.26
3556,SailorsGully,-36.73,144.26
3556,Sebastian,-36.73,144.26
3556,Whipstick,-36.73,144.26
3556,Woodvale,-36.73,144.26
3557,Barnadown,-36.65,144.51
3557,Fosterville,-36.65,144.51
3557,Goornong,-36.65,144.51
3557,Muskerry,-36.65,144.51
3558,Burnewang,-36.49,144.71
3558,CoropWest,-36.49,144.71
3558,Elmore,-36.49,144.71
3558,Hunter,-36.49,144.71
3558,Runnymede,-36.49,144.71
3559,Avonmore,-36.53,144.6
3559,Burramboot,-36.53,144.6
3559,Colbinabbin,-36.53,144.6
3559,Corop,-36.53,144.6
3559,Gobarup,-36.53,144.6
3561,Ballendella,-36.3,144.67
3561,Bamawm,-36.3,144.67
3561,BamawmExtension,-36.3,144.67
3561,Bonn,-36.3,144.67
3561,Diggora,-36.3,144.67
3561,FairyDell,-36.3,144.67
3561,Nanneella,-36.3,144.67
3561,Rochester,-36.3,144.67
3561,Timmering,-36.3,144.67
3562,Torrumbarry,-35.98,144.46
3563,Lockington,-36.27,144.48
3564,Echuca,-36.13,144.73
3564,EchucaSouth,-36.13,144.73
3564,EchucaVillage,-36.13,144.73
3564,EchucaWest,-36.13,144.73
3564,Kanyapella,-36.13,144.73
3564,Patho,-36.13,144.73
3564,Roslynmead,-36.13,144.73
3564,Wharparilla,-36.13,144.73
3565,Kotta,-36.19,144.53
3566,Gunbower,-35.96,144.37
3567,Horfield,-35.89,144.24
3567,Leitchville,-35.89,144.24
3568,BurkesBridge,-35.84,144.34
3568,Cohuna,-35.84,144.34
3568,Cullen,-35.84,144.34
3568,DaltonsBridge,-35.84,144.34
3568,Gannawarra,-35.84,144.34
3568,Keely,-35.84,144.34
3568,MacornaNorth,-35.84,144.34
3568,Mcmillans,-35.84,144.34
3568,Mead,-35.84,144.34
3568,MinchaWest,-35.84,144.34
3568,WeeWeeRup,-35.84,144.34
3570,Auchmore,-36.47,144.11
3570,Drummartin,-36.47,144.11
3570,Kamarooka,-36.47,144.11
3570,Neilborough,-36.47,144.11
3570,Raywood,-36.47,144.11
3571,Dingee,-36.37,144.23
3571,KamarookaNorth,-36.37,144.23
3571,Pompapiel,-36.37,144.23
3571,Tandarra,-36.37,144.23
3572,Milloo,-36.36,144.38
3572,Piavella,-36.36,144.38
3572,Prairie,-36.36,144.38
3572,Tennyson,-36.36,144.38
3573,Calivil,-36.3,144.09
3573,Mitiamo,-36.3,144.09
3573,PineGrove,-36.3,144.09
3573,TerrickTerrickEast,-36.3,144.09
3575,Gladfield,-36.04,143.99
3575,Jungaburra,-36.04,143.99
3575,LoddonVale,-36.04,143.99
3575,Mincha,-36.04,143.99
3575,Mologa,-36.04,143.99
3575,PyramidHill,-36.04,143.99
3575,Sylvaterre,-36.04,143.99
3575,TerrickTerrick,-36.04,143.99
3575,Yarrawalla,-36.04,143.99
3576,DurhamOx,-36.2,143.96
3579,Appin,-35.88,143.87
3579,AppinSouth,-35.88,143.87
3579,BaelBael,-35.88,143.87
3579,Beauchamp,-35.88,143.87
3579,Benjeroop,-35.88,143.87
3579,BudgerumEast,-35.88,143.87
3579,CapelsCrossing,-35.88,143.87
3579,Dingwall,-35.88,143.87
3579,Fairley,-35.88,143.87
3579,GonnCrossing,-35.88,143.87
3579,Kerang,-35.88,143.87
3579,KerangEast,-35.88,143.87
3579,Koroop,-35.88,143.87
3579,LakeMeran,-35.88,143.87
3579,Macorna,-35.88,143.87
3579,MeeringWest,-35.88,143.87
3579,MilnesBridge,-35.88,143.87
3579,Murrabit,-35.88,143.87
3579,MurrabitWest,-35.88,143.87
3579,Myall,-35.88,143.87
3579,MysticPark,-35.88,143.87
3579,Normanville,-35.88,143.87
3579,PineView,-35.88,143.87
3579,ReedyLake,-35.88,143.87
3579,SandhillLake,-35.88,143.87
3579,TealPoint,-35.88,143.87
3579,Tragowel,-35.88,143.87
3579,Wandella,-35.88,143.87
3579,Westby,-35.88,143.87
3580,Koondrook,-35.64,144.11
3581,LakeCharm,-35.62,143.8
3583,Tresco,-35.51,143.64
3584,LakeBoga,-35.46,143.63
3584,TrescoWest,-35.46,143.63
3585,CastleDonnington,-35.42,143.59
3585,Chillingollah,-35.42,143.59
3585,FishPoint,-35.42,143.59
3585,Goschen,-35.42,143.59
3585,Kunat,-35.42,143.59
3585,Meatian,-35.42,143.59
3585,MurrayDowns,-35.42,143.59
3585,Nowie,-35.42,143.59
3585,Nyrraby,-35.42,143.59
3585,Pira,-35.42,143.59
3585,Polisbet,-35.42,143.59
3585,Speewa,-35.42,143.59
3585,SwanHill,-35.42,143.59
3585,SwanHillPioneer,-35.42,143.59
3585,SwanHillWest,-35.42,143.59
3585,Winlaton,-35.42,143.59
3586,Bulga,-35.3,143.36
3586,Mallan,-35.3,143.36
3586,Murrawee,-35.3,143.36
3586,Murraydale,-35.3,143.36
3586,PentalIsland,-35.3,143.36
3586,Tyntynder,-35.3,143.36
3586,TyntynderSouth,-35.3,143.36
3588,WoorinenSouth,-35.27,143.45
3589,Woorinen,-35.26,143.47
3589,WoorinenNorth,-35.26,143.47
3590,Beverford,-35.24,143.48
3591,Vinifera,-35.22,143.41
3594,Nyah,-35.15,143.36
3595,NyahWest,-35.19,143.35
3596,Miralie,-35.12,143.33
3596,Towan,-35.12,143.33
3596,WoodWood,-35.12,143.33
3597,Kenley,-34.86,143.34
3597,Kooloonong,-34.86,143.34
3597,LakePowell,-34.86,143.34
3597,Narrung,-34.86,143.34
3597,Natya,-34.86,143.34
3597,Piangil,-34.86,143.34
3599,BoundaryBend,-34.74,143.14
3607,Tabilk,-36.85,145.2
3608,Bailieston,-36.7,145.03
3608,GoulburnWeir,-36.7,145.03
3608,Graytown,-36.7,145.03
3608,KirwansBridge,-36.7,145.03
3608,Mitchellstown,-36.7,145.03
3608,Nagambie,-36.7,145.03
3608,Wahring,-36.7,145.03
3608,Wirrate,-36.7,145.03
3610,Dhurringile,-36.54,145.28
3610,Moorilim,-36.54,145.28
3610,Murchison,-36.54,145.28
3610,MurchisonEast,-36.54,145.28
3610,MurchisonNorth,-36.54,145.28
3612,Moora,-36.59,144.95
3612,Rushworth,-36.59,144.95
3612,Wanalta,-36.59,144.95
3612,WarangaShores,-36.59,144.95
3612,Whroo,-36.59,144.95
3614,Toolamba,-36.48,145.26
3614,ToolambaWest,-36.48,145.26
3616,Cooma,-36.42,145.07
3616,Gillieston,-36.42,145.07
3616,GirgarreEast,-36.42,145.07
3616,Harston,-36.42,145.07
3616,MooroopnaNorthWest,-36.42,145.07
3616,Tatura,-36.42,145.07
3616,TaturaEast,-36.42,145.07
3616,Waranga,-36.42,145.07
3617,Byrneside,-36.42,145.15
3618,Merrigum,-36.37,145.17
3619,Kyabram,-37.66,144.94
3620,Kyabram,-36.31,145.05
3620,KyabramSouth,-36.31,145.05
3620,Lancaster,-36.31,145.05
3620,StGermains,-36.31,145.05
3620,Taripta,-36.31,145.05
3620,Wyuna,-36.31,145.05
3620,WyunaEast,-36.31,145.05
3621,Kyvalley,-36.27,144.85
3621,Tongala,-36.27,144.85
3621,Yambuna,-36.27,144.85
3622,Koyuga,-36.16,144.77
3622,Strathallan,-36.16,144.77
3623,CaragCarag,-36.46,144.9
3623,Stanhope,-36.46,144.9
3623,StanhopeSouth,-36.46,144.9
3624,Girgarre,-36.44,145.07
3629,Ardmona,-36.38,145.3
3629,Coomboona,-36.38,145.3
3629,Mooroopna,-36.38,145.3
3629,MooroopnaNorth,-36.38,145.3
3629,Undera,-36.38,145.3
3630,Branditt,-36.36,145.4
3630,Caniambo,-36.36,145.4
3630,Colliver,-36.36,145.4
3630,Dunkirk,-36.36,145.4
3630,Shepparton,-36.36,145.4
3630,SheppartonSouth,-36.36,145.4
3631,Arcadia,-36.54,145.36
3631,ArcadiaSouth,-36.54,145.36
3631,Cosgrove,-36.54,145.36
3631,CosgroveSouth,-36.54,145.36
3631,Grahamvale,-36.54,145.36
3631,Karramomus,-36.54,145.36
3631,Kialla,-36.54,145.36
3631,KiallaEast,-36.54,145.36
3631,KiallaWest,-36.54,145.36
3631,Lemnos,-36.54,145.36
3631,Orrvale,-36.54,145.36
3631,PineLodge,-36.54,145.36
3631,SheppartonEast,-36.54,145.36
3631,SheppartonNorth,-36.54,145.36
3632,Shepparton,-36.54,145.6
3633,Congupna,-36.3,145.48
3634,Bunbartha,-36.22,145.34
3634,Katandra,-36.22,145.34
3634,KatandraWest,-36.22,145.34
3634,Marionvale,-36.22,145.34
3634,Marungi,-36.22,145.34
3634,Tallygaroopna,-36.22,145.34
3634,Zeerust,-36.22,145.34
3635,Kaarimba,-36.16,145.3
3635,Mundoona,-36.16,145.3
3635,Wunghnu,-36.16,145.3
3636,Drumanure,-36.14,145.5
3636,Invergordon,-36.14,145.5
3636,Naring,-36.14,145.5
3636,Numurkah,-36.14,145.5
3637,Waaia,-36.05,145.33
3637,Yalca,-36.05,145.33
3638,Kotupna,-36.15,145.17
3638,Nathalia,-36.15,145.17
3638,Yielima,-36.15,145.17
3639,Barmah,-36.02,144.97
3639,LowerMoira,-36.02,144.97
3639,Picola,-36.02,144.97
3639,PicolaWest,-36.02,144.97
3640,Katunga,-35.97,145.46
3641,Bearii,-35.92,145.33
3641,Mywee,-35.92,145.33
3641,Strathmerton,-35.92,145.33
3641,Ulupna,-35.92,145.33
3643,Cobram,-35.96,145.63
3644,Barooga,-35.91,145.69
3644,Cobram,-35.91,145.69
3644,CobramEast,-35.91,145.69
3644,Koonoomoo,-35.91,145.69
3644,Lalalty,-35.91,145.69
3644,Muckatah,-35.91,145.69
3644,Yarroweyah,-35.91,145.69
3646,Dookie,-36.33,145.69
3646,MountMajor,-36.33,145.69
3646,Nalinga,-36.33,145.69
3646,Waggarandall,-36.33,145.69
3646,YabbaNorth,-36.33,145.69
3646,YabbaSouth,-36.33,145.69
3646,Youanmite,-36.33,145.69
3647,DookieCollege,-36.4,145.7
3649,Katamatite,-36.08,145.69
3649,KatamatiteEast,-36.08,145.69
3658,Broadford,-37.2,145.05
3658,Clonbinane,-37.2,145.05
3658,Flowerdale,-37.2,145.05
3658,Hazeldene,-37.2,145.05
3658,ReedyCreek,-37.2,145.05
3658,StrathCreek,-37.2,145.05
3658,SugarloafCreek,-37.2,145.05
3658,SundayCreek,-37.2,145.05
3658,Tyaak,-37.2,145.05
3658,WaterfordPark,-37.2,145.05
3659,Tallarook,-37.13,145.02
3660,Caveat,-37.09,145.5
3660,Dropmore,-37.09,145.5
3660,Highlands,-37.09,145.5
3660,Hilldene,-37.09,145.5
3660,Kerrisdale,-37.09,145.5
3660,Northwood,-37.09,145.5
3660,Seymour,-37.09,145.5
3660,SeymourSouth,-37.09,145.5
3660,Trawool,-37.09,145.5
3660,WhiteheadsCreek,-37.09,145.5
3661,Seymour,-38.2,146.54
3662,Puckapunyal,0,0
3662,PuckapunyalMilpo,0,0
3663,Mangalore,-36.94,145.16
3664,Avenel,-36.89,145.23
3664,UptonHill,-36.89,145.23
3665,Locksley,-36.82,145.36
3665,Longwood,-36.82,145.36
3666,Balmattum,-36.71,145.64
3666,CreightonsCreek,-36.71,145.64
3666,Euroa,-36.71,145.64
3666,Gooram,-36.71,145.64
3666,KelvinView,-36.71,145.64
3666,Kithbrook,-36.71,145.64
3666,LongwoodEast,-36.71,145.64
3666,Miepoll,-36.71,145.64
3666,Moglonemby,-36.71,145.64
3666,Molka,-36.71,145.64
3666,Pranjip,-36.71,145.64
3666,RiggsCreek,-36.71,145.64
3666,Ruffy,-36.71,145.64
3666,SheansCreek,-36.71,145.64
3666,Strathbogie,-36.71,145.64
3666,Tarcombe,-36.71,145.64
3669,Boho,-36.7,145.77
3669,BohoSouth,-36.7,145.77
3669,CreekJunction,-36.7,145.77
3669,Earlston,-36.7,145.77
3669,Gowangardie,-36.7,145.77
3669,Koonda,-36.7,145.77
3669,Marraweeney,-36.7,145.77
3669,Tamleugh,-36.7,145.77
3669,TamleughNorth,-36.7,145.77
3669,Upotipotpon,-36.7,145.77
3669,VioletTown,-36.7,145.77
3670,Baddaginnie,-36.59,145.86
3670,Tarnook,-36.59,145.86
3670,Warrenbayne,-36.59,145.86
3671,Benalla,-36.39,145.42
3672,Benalla,-36.55,145.99
3672,BenallaWest,-36.55,145.99
3673,BrokenCreek,-36.43,145.89
3673,Goomalibee,-36.43,145.89
3673,Lima,-36.43,145.89
3673,LimaEast,-36.43,145.89
3673,LimaSouth,-36.43,145.89
3673,Lurg,-36.43,145.89
3673,Molyullah,-36.43,145.89
3673,Moorngag,-36.43,145.89
3673,Samaria,-36.43,145.89
3673,Swanpool,-36.43,145.89
3673,Tatong,-36.43,145.89
3673,UpperLurg,-36.43,145.89
3673,UpperRyansCreek,-36.43,145.89
3673,Winton,-36.43,145.89
3673,WintonNorth,-36.43,145.89
3675,Boweya,-36.27,146.13
3675,BoweyaNorth,-36.27,146.13
3675,Glenrowan,-36.27,146.13
3675,GlenrowanWest,-36.27,146.13
3675,Greta,-36.27,146.13
3675,GretaSouth,-36.27,146.13
3675,GretaWest,-36.27,146.13
3675,Hansonville,-36.27,146.13
3675,MountBruno,-36.27,146.13
3675,Taminick,-36.27,146.13
3676,Wangaratta,-36.34,146.34
3677,Wangaratta,-36.35,146.3
3677,WangarattaWest,-36.35,146.3
3677,Yarrunga,-36.35,146.3
3678,Bobinawarrah,-36.52,146.5
3678,Boorhaman,-36.52,146.5
3678,BoorhamanEast,-36.52,146.5
3678,Bowser,-36.52,146.5
3678,Byawatha,-36.52,146.5
3678,Carboor,-36.52,146.5
3678,Cheshunt,-36.52,146.5
3678,CheshuntSouth,-36.52,146.5
3678,Docker,-36.52,146.5
3678,DockersPlains,-36.52,146.5
3678,EastWangaratta,-36.52,146.5
3678,Edi,-36.52,146.5
3678,EdiUpper,-36.52,146.5
3678,Everton,-36.52,146.5
3678,EvertonUpper,-36.52,146.5
3678,Killawarra,-36.52,146.5
3678,KingValley,-36.52,146.5
3678,Laceby,-36.52,146.5
3678,Londrigan,-36.52,146.5
3678,Markwood,-36.52,146.5
3678,MeadowCreek,-36.52,146.5
3678,Milawa,-36.52,146.5
3678,NorthWangaratta,-36.52,146.5
3678,Oxley,-36.52,146.5
3678,OxleyFlats,-36.52,146.5
3678,Peechelba,-36.52,146.5
3678,PeechelbaEast,-36.52,146.5
3678,RoseRiver,-36.52,146.5
3678,Tarrawingee,-36.52,146.5
3678,Wabonga,-36.52,146.5
3678,Waldara,-36.52,146.5
3678,Wangandary,-36.52,146.5
3678,WangarattaForward,-36.52,146.5
3678,WangarattaSouth,-36.52,146.5
3678,Whitlands,-36.52,146.5
3682,Boralma,-36.24,146.41
3682,Lilliput,-36.24,146.41
3682,Norong,-36.24,146.41
3682,Springhurst,-36.24,146.41
3683,Chiltern,-36.15,146.61
3683,ChilternValley,-36.15,146.61
3683,Cornishtown,-36.15,146.61
3685,BoorhamanNorth,-36.1,146.22
3685,Brimin,-36.1,146.22
3685,BrownsPlains,-36.1,146.22
3685,Carlyle,-36.1,146.22
3685,Gooramadda,-36.1,146.22
3685,GreatSouthern,-36.1,146.22
3685,LakeMoodemere,-36.1,146.22
3685,PrenticeNorth,-36.1,146.22
3685,Rutherglen,-36.1,146.22
3687,Wahgunyah,-36.01,146.4
3688,Barnawartha,-36.11,146.67
3688,IndigoValley,-36.11,146.67
3689,Wodonga,-37.68,144.99
3690,WestWodonga,-36.1,146.82
3690,Wodonga,-36.1,146.82
3690,WodongaPlaza,-36.1,146.82
3691,AllansFlat,-36.28,146.91
3691,Bandiana,-36.28,146.91
3691,Baranduda,-36.28,146.91
3691,BarnawarthaNorth,-36.28,146.91
3691,Bellbridge,-36.28,146.91
3691,Berringama,-36.28,146.91
3691,Bethanga,-36.28,146.91
3691,Bonegilla,-36.28,146.91
3691,Bungil,-36.28,146.91
3691,CastleCreek,-36.28,146.91
3691,CoralBank,-36.28,146.91
3691,Dederang,-36.28,146.91
3691,Ebden,-36.28,146.91
3691,GatewayIsland,-36.28,146.91
3691,GlenCreek,-36.28,146.91
3691,Gundowring,-36.28,146.91
3691,HuonCreek,-36.28,146.91
3691,Kancoona,-36.28,146.91
3691,Kergunyah,-36.28,146.91
3691,KergunyahSouth,-36.28,146.91
3691,Kiewa,-36.28,146.91
3691,Killara,-36.28,146.91
3691,LakeHumeVillage,-36.28,146.91
3691,Leneva,-36.28,146.91
3691,Lucyvale,-36.28,146.91
3691,MongansBridge,-36.28,146.91
3691,OsbornesFlat,-36.28,146.91
3691,RunningCreek,-36.28,146.91
3691,StaghornFlat,-36.28,146.91
3691,Talgarno,-36.28,146.91
3691,Tangambalanga,-36.28,146.91
3691,Thologolong,-36.28,146.91
3691,UpperGundowring,-36.28,146.91
3691,WodongaForward,-36.28,146.91
3694,BandianaMilpo,-36.14,146.92
3695,Charleroi,-36.3,147.14
3695,Huon,-36.3,147.14
3695,SandyCreek,-36.3,147.14
3697,Tawonga,-36.67,147.21
3698,TawongaSouth,0,0
3699,Bogong,-36.81,147.22
3699,FallsCreek,-36.81,147.22
3699,MountBeauty,-36.81,147.22
3699,Nelse,-36.81,147.22
3700,Bullioh,-36.18,147.34
3700,GeorgesCreek,-36.18,147.34
3700,JarvisCreek,-36.18,147.34
3700,Tallangatta,-36.18,147.34
3700,TallangattaEast,-36.18,147.34
3701,Dartmouth,-36.53,147.5
3701,Eskdale,-36.53,147.5
3701,Granya,-36.53,147.5
3701,MittaMitta,-36.53,147.5
3701,OldTallangatta,-36.53,147.5
3701,Shelley,-36.53,147.5
3701,Tallandoon,-36.53,147.5
3701,TallangattaSouth,-36.53,147.5
3701,TallangattaValley,-36.53,147.5
3704,Koetong,-36.1,147.54
3705,Cudgewa,-36.19,147.77
3707,Biggara,-36.28,148.03
3707,Bringenbrong,-36.28,148.03
3707,ColacColac,-36.28,148.03
3707,Corryong,-36.28,148.03
3707,NarielValley,-36.28,148.03
3707,ThowglaValley,-36.28,148.03
3707,TomGroggin,-36.28,148.03
3707,Towong,-36.28,148.03
3707,TowongUpper,-36.28,148.03
3708,Tintaldra,-36.05,147.93
3709,Burrowye,-36.05,147.56
3709,GuysForest,-36.05,147.56
3709,MountAlfred,-36.05,147.56
3709,PineMountain,-36.05,147.56
3709,Walwa,-36.05,147.56
3711,Buxton,-37.42,145.71
3712,Rubicon,-37.33,145.86
3712,Thornton,-37.33,145.86
3713,Eildon,-37.23,145.91
3713,LakeEildon,-37.23,145.91
3713,TaylorBay,-37.23,145.91
3714,Acheron,-37.25,145.7
3714,Alexandra,-37.25,145.7
3714,Cathkin,-37.25,145.7
3714,CrystalCreek,-37.25,145.7
3714,DevilsRiver,-37.25,145.7
3714,Fawcett,-37.25,145.7
3714,Koriella,-37.25,145.7
3714,Maintongoon,-37.25,145.7
3714,Taggerty,-37.25,145.7
3714,Whanregarwen,-37.25,145.7
3715,Ancona,-36.97,145.79
3715,Merton,-36.97,145.79
3715,Woodfield,-36.97,145.79
3717,Flowerdale,-37.34,145.29
3717,GhinGhin,-37.34,145.29
3717,Glenburn,-37.34,145.29
3717,Homewood,-37.34,145.29
3717,Killingworth,-37.34,145.29
3717,Limestone,-37.34,145.29
3717,Murrindindi,-37.34,145.29
3717,Yea,-37.34,145.29
3718,Molesworth,-37.13,145.53
3719,Gobur,-37.01,145.62
3719,Kanumbra,-37.01,145.62
3719,TeripTerip,-37.01,145.62
3719,Yarck,-37.01,145.62
3720,BonnieDoon,-37.02,145.86
3722,Barwite,-37.01,146.22
3722,Mansfield,-37.01,146.22
3722,Mirimbah,-37.01,146.22
3723,Archerton,-36.89,146.26
3723,Barjarg,-36.89,146.26
3723,Boorolite,-36.89,146.26
3723,BridgeCreek,-36.89,146.26
3723,Delatite,-36.89,146.26
3723,EnochsPoint,-36.89,146.26
3723,GaffneysCreek,-36.89,146.26
3723,GoughsBay,-36.89,146.26
3723,HowesCreek,-36.89,146.26
3723,Howqua,-36.89,146.26
3723,HowquaHills,-36.89,146.26
3723,HowquaInlet,-36.89,146.26
3723,Jamieson,-36.89,146.26
3723,Kevington,-36.89,146.26
3723,Knockwood,-36.89,146.26
3723,MacsCove,-36.89,146.26
3723,Maindample,-36.89,146.26
3723,Matlock,-36.89,146.26
3723,Merrijig,-36.89,146.26
3723,MountBuller,-36.89,146.26
3723,MountainBay,-36.89,146.26
3723,Piries,-36.89,146.26
3723,SawmillSettlement,-36.89,146.26
3723,Tolmie,-36.89,146.26
3723,WoodsPoint,-36.89,146.26
3724,Mansfield,-37.05,146.08
3725,Boxwood,-36.32,145.8
3725,ChesneyVale,-36.32,145.8
3725,Goorambat,-36.32,145.8
3725,MajorPlains,-36.32,145.8
3725,Stewarton,-36.32,145.8
3726,Bungeet,-36.28,146.06
3726,BungeetWest,-36.28,146.06
3726,Devenish,-36.28,146.06
3726,Thoona,-36.28,146.06
3727,Almonds,-36.23,146.06
3727,LakeRowan,-36.23,146.06
3727,Pelluebla,-36.23,146.06
3727,StJames,-36.23,146.06
3727,Yundool,-36.23,146.06
3728,Boomahnoomoonah,-36.1,146.08
3728,Tungamah,-36.1,146.08
3728,Wilby,-36.1,146.08
3728,Youarang,-36.1,146.08
3730,Bathumi,-36.03,146.08
3730,Boosey,-36.03,146.08
3730,Bundalong,-36.03,146.08
3730,BundalongSouth,-36.03,146.08
3730,Burramine,-36.03,146.08
3730,BurramineSouth,-36.03,146.08
3730,Esmond,-36.03,146.08
3730,Telford,-36.03,146.08
3730,Yarrawonga,-36.03,146.08
3730,YarrawongaSouth,-36.03,146.08
3732,Moyhu,-36.58,146.38
3732,Myrrhee,-36.58,146.38
3733,Whitfield,-36.75,146.41
3735,BowmansForest,-36.52,146.58
3735,Whorouly,-36.52,146.58
3735,WhoroulyEast,-36.52,146.58
3735,WhoroulySouth,-36.52,146.58
3736,Myrtleford,-36.46,146.48
3737,Abbeyard,-36.98,146.78
3737,Barwidgee,-36.98,146.78
3737,BuffaloRiver,-36.98,146.78
3737,Dandongadale,-36.98,146.78
3737,Gapsted,-36.98,146.78
3737,Havilah,-36.98,146.78
3737,Merriang,-36.98,146.78
3737,MerriangSouth,-36.98,146.78
3737,Mudgegonga,-36.98,146.78
3737,Myrtleford,-36.98,146.78
3737,NugNug,-36.98,146.78
3737,Rosewhite,-36.98,146.78
3737,Selwyn,-36.98,146.78
3737,Wonnangatta,-36.98,146.78
3738,Ovens,-36.61,146.79
3739,Eurobin,-36.7,146.85
3740,Buckland,-36.82,146.85
3740,MountBuffalo,-36.82,146.85
3740,Porepunkah,-36.82,146.85
3741,Bright,-36.73,146.96
3741,Freeburgh,-36.73,146.96
3741,Germantown,-36.73,146.96
3741,Harrietville,-36.73,146.96
3741,HothamHeights,-36.73,146.96
3741,MountHotham,-36.73,146.96
3741,Smoko,-36.73,146.96
3744,Wandiligong,-36.75,146.98
3746,Eldorado,-36.3,146.58
3747,Beechworth,-36.36,146.69
3747,Murmungee,-36.36,146.69
3747,Stanley,-36.36,146.69
3747,Woolshed,-36.36,146.69
3747,Wooragee,-36.36,146.69
3749,Bruarong,-36.41,146.86
3749,Yackandandah,-36.41,146.86
3750,Wollert,-38.38,144.81
3751,Woodstock,-37.69,144.89
3752,MorangSouth,-37.65,145.1
3752,SouthMorang,-37.65,145.1
3753,Beveridge,-37.47,145
3754,Doreen,-37.62,145.15
3754,Mernda,-37.62,145.15
3755,YanYean,-37.57,145.14
3756,Chintin,-37.4,144.8
3756,DarraweitGuim,-37.4,144.8
3756,UpperPlenty,-37.4,144.8
3756,Wallan,-37.4,144.8
3757,EdenPark,-37.45,145.11
3757,Humevale,-37.45,145.11
3757,KinglakeCentral,-37.45,145.11
3757,KinglakeWest,-37.45,145.11
3757,PheasantCreek,-37.45,145.11
3757,Whittlesea,-37.45,145.11
3758,HeathcoteJunction,-37.38,145.03
3758,Wandong,-37.38,145.03
3759,PantonHill,-37.64,145.24
3760,SmithsGully,-37.62,145.29
3761,StAndrews,0,0
3762,Bylands,0,0
3763,Kinglake,-37.48,145.28
3764,Forbes,-37.31,144.89
3764,Glenaroua,-37.31,144.89
3764,HighCamp,-37.31,144.89
3764,Kilmore,-37.31,144.89
3764,KilmoreEast,-37.31,144.89
3764,Moranding,-37.31,144.89
3764,Tantaraboo,-37.31,144.89
3764,Willowmavin,-37.31,144.89
3765,Montrose,-37.81,145.34
3766,Kalorama,-37.82,145.37
3767,MountDandenong,-37.84,145.36
3770,Coldstream,-37.72,145.38
3770,Gruyere,-37.72,145.38
3770,Yering,-37.72,145.38
3775,ChristmasHills,-37.65,145.32
3775,DixonsCreek,-37.65,145.32
3775,SteelsCreek,-37.65,145.32
3775,Tarrawarra,-37.65,145.32
3775,YarraGlen,-37.65,145.32
3777,BadgerCreek,-37.69,145.54
3777,Castella,-37.69,145.54
3777,ChumCreek,-37.69,145.54
3777,Healesville,-37.69,145.54
3777,HealesvilleMainStreet,-37.69,145.54
3777,HealesvillePostShop,-37.69,145.54
3777,MountToolebewong,-37.69,145.54
3777,Toolangi,-37.69,145.54
3778,Fernshaw,-37.63,145.7
3778,Narbethong,-37.63,145.7
3779,Cambarville,-37.56,145.89
3779,Marysville,-37.56,145.89
3781,Cockatoo,-37.94,145.49
3781,MountBurnett,-37.94,145.49
3781,Nangana,-37.94,145.49
3782,Avonsleigh,-37.92,145.47
3782,Clematis,-37.92,145.47
3782,Emerald,-37.92,145.47
3782,Macclesfield,-37.92,145.47
3783,Gembrook,-37.95,145.55
3785,Tremont,-38.27,144.49
3786,FernyCreek,-37.88,145.34
3787,Sassafras,-37.88,145.37
3787,SassafrasGully,-37.88,145.37
3788,Olinda,-37.86,145.36
3789,Sherbrooke,-37.88,145.36
3791,Kallista,-37.9,145.41
3792,ThePatch,-37.89,145.39
3793,Monbulk,-37.87,145.41
3795,Silvan,-37.84,145.41
3796,MountEvelyn,-37.79,145.38
3797,Gilderoy,-37.86,145.71
3797,Gladysdale,-37.86,145.71
3797,Powelltown,-37.86,145.71
3797,ThreeBridges,-37.86,145.71
3797,YarraJunction,-37.86,145.71
3799,BigPatsCreek,-37.76,145.75
3799,EastWarburton,-37.76,145.75
3799,McmahonsCreek,-37.76,145.75
3799,Millgrove,-37.76,145.75
3799,Reefton,-37.76,145.75
3799,Warburton,-37.76,145.75
3799,Wesburn,-37.76,145.75
3800,MonashUniversity,-37.91,145.13
3802,EndeavourHills,-37.98,145.25
3803,Hallam,-38,145.27
3804,NarreWarrenEast,-37.97,145.36
3804,NarreWarrenNorth,-37.97,145.36
3805,FountainGate,-38.02,145.3
3805,NarreWarren,-38.02,145.3
3805,NarreWarrenSouth,-38.02,145.3
3806,Berwick,-38.03,145.34
3806,Harkaway,-38.03,145.34
3807,Beaconsfield,-38.05,145.37
3807,GuysHill,-38.05,145.37
3808,BeaconsfieldUpper,-38,145.41
3808,Dewhurst,-38,145.41
3809,Officer,-38.06,145.41
3809,OfficerSouth,-38.06,145.41
3810,Pakenham,-38.08,145.49
3810,PakenhamSouth,-38.08,145.49
3810,PakenhamUpper,-38.08,145.49
3810,Rythdale,-38.08,145.49
3812,Maryknoll,-38.04,145.61
3812,NarNarGoon,-38.04,145.61
3812,NarNarGoonNorth,-38.04,145.61
3813,Tynong,-38.09,145.63
3813,TynongNorth,-38.09,145.63
3814,CoraLynn,-38.15,145.61
3814,Garfield,-38.15,145.61
3814,GarfieldNorth,-38.15,145.61
3814,Vervale,-38.15,145.61
3815,Bunyip,-38.1,145.72
3815,BunyipNorth,-38.1,145.72
3815,Iona,-38.1,145.72
3815,Tonimbuk,-38.1,145.72
3816,Labertouche,-38.05,145.83
3816,Longwarry,-38.05,145.83
3816,LongwarryNorth,-38.05,145.83
3816,Modella,-38.05,145.83
3818,Athlone,-38.24,145.78
3818,Drouin,-38.24,145.78
3818,DrouinEast,-38.24,145.78
3818,DrouinSouth,-38.24,145.78
3818,DrouinWest,-38.24,145.78
3818,Hallora,-38.24,145.78
3818,Jindivick,-38.24,145.78
3818,Ripplebrook,-38.24,145.78
3820,BonaVista,-38.21,145.96
3820,Lillico,-38.21,145.96
3820,Warragul,-38.21,145.96
3821,BrandyCreek,-38.1,145.92
3821,Bravington,-38.1,145.92
3821,BulnBuln,-38.1,145.92
3821,BulnBulnEast,-38.1,145.92
3821,Crossover,-38.1,145.92
3821,Ellinbank,-38.1,145.92
3821,Ferndale,-38.1,145.92
3821,Lardner,-38.1,145.92
3821,Nilma,-38.1,145.92
3821,NilmaNorth,-38.1,145.92
3821,Rokeby,-38.1,145.92
3821,Seaview,-38.1,145.92
3821,ShadyCreek,-38.1,145.92
3821,TetooraRoad,-38.1,145.92
3821,Torwood,-38.1,145.92
3821,WarragulSouth,-38.1,145.92
3821,WarragulWest,-38.1,145.92
3822,Cloverlea,-38.24,146
3822,Darnum,-38.24,146
3822,Gainsborough,-38.24,146
3823,Allambee,-38.26,146.03
3823,Yarragon,-38.26,146.03
3823,YarragonSouth,-38.26,146.03
3824,Childers,-38.3,146.11
3824,Narracan,-38.3,146.11
3824,ThorpdaleSouth,-38.3,146.11
3824,Trafalgar,-38.3,146.11
3824,TrafalgarEast,-38.3,146.11
3824,TrafalgarSouth,-38.3,146.11
3825,Aberfeldy,-37.7,146.36
3825,Amor,-37.7,146.36
3825,Boola,-37.7,146.36
3825,Caringal,-37.7,146.36
3825,Coalville,-37.7,146.36
3825,CoopersCreek,-37.7,146.36
3825,Erica,-37.7,146.36
3825,Fumina,-37.7,146.36
3825,FuminaSouth,-37.7,146.36
3825,HernesOak,-37.7,146.36
3825,HillEnd,-37.7,146.36
3825,JacobCreek,-37.7,146.36
3825,Jericho,-37.7,146.36
3825,Moe,-37.7,146.36
3825,MoeSouth,-37.7,146.36
3825,Moondarra,-37.7,146.36
3825,Newborough,-37.7,146.36
3825,NewboroughEast,-37.7,146.36
3825,Rawson,-37.7,146.36
3825,Tanjil,-37.7,146.36
3825,TanjilSouth,-37.7,146.36
3825,Thalloo,-37.7,146.36
3825,Thomson,-37.7,146.36
3825,Toombon,-37.7,146.36
3825,Walhalla,-37.7,146.36
3825,WalhallaEast,-37.7,146.36
3825,Westbury,-37.7,146.36
3825,WillowGrove,-37.7,146.36
3825,Yallourn,-37.7,146.36
3825,YallournNorth,-37.7,146.36
3831,Neerim,-37.96,145.99
3831,NeerimEast,-37.96,145.99
3831,NeerimSouth,-37.96,145.99
3832,Nayook,-37.91,145.93
3832,NeerimJunction,-37.91,145.93
3832,NeerimNorth,-37.91,145.93
3833,Ada,-37.84,145.85
3833,BawBaw,-37.84,145.85
3833,BawBawVillage,-37.84,145.85
3833,GentleAnnie,-37.84,145.85
3833,IcyCreek,-37.84,145.85
3833,LochValley,-37.84,145.85
3833,Noojee,-37.84,145.85
3833,Piedmont,-37.84,145.85
3833,TanjilBren,-37.84,145.85
3833,Toorongo,-37.84,145.85
3833,Vesper,-37.84,145.85
3835,Thorpdale,-38.33,146.12
3840,Driffield,-38.28,146.32
3840,Hazelwood,-38.28,146.32
3840,HazelwoodNorth,-38.28,146.32
3840,HazelwoodSouth,-38.28,146.32
3840,Jeeralang,-38.28,146.32
3840,JeeralangJunction,-38.28,146.32
3840,Maryvale,-38.28,146.32
3840,MidValley,-38.28,146.32
3840,Morwell,-38.28,146.32
3840,MorwellEast,-38.28,146.32
3840,MorwellUpper,-38.28,146.32
3841,GippslandMC,0,0
3842,Churchill,-38.32,146.42
3844,Blackwarry,-38.41,146.64
3844,Callignee,-38.41,146.64
3844,CalligneeNorth,-38.41,146.64
3844,CalligneeSouth,-38.41,146.64
3844,Carrajung,-38.41,146.64
3844,CarrajungLower,-38.41,146.64
3844,CarrajungSouth,-38.41,146.64
3844,Flynn,-38.41,146.64
3844,FlynnsCreek,-38.41,146.64
3844,Koornalla,-38.41,146.64
3844,LoyYang,-38.41,146.64
3844,MountTassie,-38.41,146.64
3844,Traralgon,-38.41,146.64
3844,TraralgonEast,-38.41,146.64
3844,TraralgonSouth,-38.41,146.64
3844,Tyers,-38.41,146.64
3847,Hiamdale,-38.26,146.75
3847,Nambrok,-38.26,146.75
3847,Rosedale,-38.26,146.75
3847,Willung,-38.26,146.75
3847,WillungSouth,-38.26,146.75
3850,Sale,-38.42,147.08
3850,SaleNorth,-38.42,147.08
3850,Wurruk,-38.42,147.08
3851,Airly,-38.04,147.08
3851,Bundalaguah,-38.04,147.08
3851,Clydebank,-38.04,147.08
3851,Cobains,-38.04,147.08
3851,Darriman,-38.04,147.08
3851,Dutson,-38.04,147.08
3851,DutsonDowns,-38.04,147.08
3851,FlamingoBeach,-38.04,147.08
3851,Fulham,-38.04,147.08
3851,Giffard,-38.04,147.08
3851,GiffardWest,-38.04,147.08
3851,GlomarBeach,-38.04,147.08
3851,GoldenBeach,-38.04,147.08
3851,Kilmany,-38.04,147.08
3851,LakeWellington,-38.04,147.08
3851,LochSport,-38.04,147.08
3851,Longford,-38.04,147.08
3851,Montgomery,-38.04,147.08
3851,Myrtlebank,-38.04,147.08
3851,ParadiseBeach,-38.04,147.08
3851,Pearsondale,-38.04,147.08
3851,Seacombe,-38.04,147.08
3851,Seaspray,-38.04,147.08
3851,SomertonPark,-38.04,147.08
3851,Stradbroke,-38.04,147.08
3851,TheHeart,-38.04,147.08
3851,TheHoneysuckles,-38.04,147.08
3852,EastSale,-38.11,147.13
3852,SaleEastRaaf,-38.11,147.13
3853,Sale,-38.1,146.06
3854,Glengarry,-38.12,146.57
3854,GlengarryNorth,-38.12,146.57
3854,GlengarryWest,-38.12,146.57
3856,Toongabbie,-38.07,146.67
3857,Cowwarr,-38,146.69
3858,Arbuckle,-37.97,146.69
3858,Billabong,-37.97,146.69
3858,Buragwonduc,-37.97,146.69
3858,Crookayan,-37.97,146.69
3858,Dawson,-37.97,146.69
3858,Denison,-37.97,146.69
3858,Gillum,-37.97,146.69
3858,Glenfalloch,-37.97,146.69
3858,Glenmaggie,-37.97,146.69
3858,Heyfield,-37.97,146.69
3858,HowittPlains,-37.97,146.69
3858,Licola,-37.97,146.69
3858,LicolaNorth,-37.97,146.69
3858,Reynard,-37.97,146.69
3858,Sargood,-37.97,146.69
3858,Seaton,-37.97,146.69
3858,Tamboritha,-37.97,146.69
3858,Winnindoo,-37.97,146.69
3858,Worrowing,-37.97,146.69
3858,Yangoura,-37.97,146.69
3859,MaffraWestUpper,-37.89,146.85
3859,Newry,-37.89,146.85
3859,Tinamba,-37.89,146.85
3859,TinambaWest,-37.89,146.85
3860,Boisdale,-37.88,146.99
3860,Briagolong,-37.88,146.99
3860,BushyPark,-37.88,146.99
3860,Coongulla,-37.88,146.99
3860,Koorool,-37.88,146.99
3860,Maffra,-37.88,146.99
3860,Monomak,-37.88,146.99
3860,Moroka,-37.88,146.99
3860,NapNapMarra,-37.88,146.99
3860,Riverslea,-37.88,146.99
3860,Toolome,-37.88,146.99
3860,ValenciaCreek,-37.88,146.99
3860,Woolenook,-37.88,146.99
3860,Wrathung,-37.88,146.99
3860,Wrixon,-37.88,146.99
3862,BudgeeBudgee,-37.57,147.19
3862,Cobbannah,-37.57,147.19
3862,Cowa,-37.57,147.19
3862,CrookedRiver,-37.57,147.19
3862,Dargo,-37.57,147.19
3862,Hawkhurst,-37.57,147.19
3862,HollandsLanding,-37.57,147.19
3862,Llowalong,-37.57,147.19
3862,Meerlieu,-37.57,147.19
3862,Miowera,-37.57,147.19
3862,Moornapa,-37.57,147.19
3862,Munro,-37.57,147.19
3862,PerryBridge,-37.57,147.19
3862,Stockdale,-37.57,147.19
3862,Stratford,-37.57,147.19
3862,Waterford,-37.57,147.19
3862,Wongungarra,-37.57,147.19
3864,Fernbank,-37.86,147.34
3864,Glenaladale,-37.86,147.34
3864,TheFingerboard,-37.86,147.34
3865,Lindenow,-37.8,147.46
3869,Jumbuk,-38.4,146.42
3869,Yinnar,-38.4,146.42
3869,YinnarSouth,-38.4,146.42
3870,Boolarra,-38.38,146.28
3870,BoolarraSouth,-38.38,146.28
3870,Budgeree,-38.38,146.28
3870,GrandRidge,-38.38,146.28
3870,JohnstonesHill,-38.38,146.28
3871,AllambeeReserve,-38.29,146.05
3871,AllambeeSouth,-38.29,146.05
3871,Baromi,-38.29,146.05
3871,Darlimurla,-38.29,146.05
3871,Delburn,-38.29,146.05
3871,Dollar,-38.29,146.05
3871,Mirboo,-38.29,146.05
3871,MirbooNorth,-38.29,146.05
3873,Gormandale,-38.29,146.72
3874,Cherrilong,-38.38,146.79
3874,McloughlinsBeach,-38.38,146.79
3874,Woodside,-38.38,146.79
3874,WoodsideBeach,-38.38,146.79
3874,WoodsideNorth,-38.38,146.79
3875,Bairnsdale,-37.83,147.63
3875,BanksiaPeninsula,-37.83,147.63
3875,Bengworden,-37.83,147.63
3875,Broadlands,-37.83,147.63
3875,Bullumwaal,-37.83,147.63
3875,Calulu,-37.83,147.63
3875,CliftonCreek,-37.83,147.63
3875,Deptford,-37.83,147.63
3875,EastBairnsdale,-37.83,147.63
3875,Ellaswood,-37.83,147.63
3875,FairyDell,-37.83,147.63
3875,FlaggyCreek,-37.83,147.63
3875,ForgeCreek,-37.83,147.63
3875,GoonNure,-37.83,147.63
3875,GraniteRock,-37.83,147.63
3875,Hillside,-37.83,147.63
3875,IguanaCreek,-37.83,147.63
3875,LindenowSouth,-37.83,147.63
3875,Lucknow,-37.83,147.63
3875,Marthavale,-37.83,147.63
3875,Melwood,-37.83,147.63
3875,Merrijig,-37.83,147.63
3875,MountTaylor,-37.83,147.63
3875,NewlandsArm,-37.83,147.63
3875,Ryans,-37.83,147.63
3875,Sarsfield,-37.83,147.63
3875,Tabberabbera,-37.83,147.63
3875,Walpa,-37.83,147.63
3875,Waterholes,-37.83,147.63
3875,Wentworth,-37.83,147.63
3875,Woodglen,-37.83,147.63
3875,WukWuk,-37.83,147.63
3875,WyYung,-37.83,147.63
3878,EaglePoint,-37.89,147.67
3880,BoolePoole,-37.92,147.69
3880,OceanGrange,-37.92,147.69
3880,Paynesville,-37.92,147.69
3880,RaymondIsland,-37.92,147.69
3882,Nicholson,-37.82,147.73
3885,Brumby,-37.71,147.83
3885,Bruthen,-37.71,147.83
3885,Buchan,-37.71,147.83
3885,BuchanSouth,-37.71,147.83
3885,ButchersRidge,-37.71,147.83
3885,Gelantipy,-37.71,147.83
3885,Mossiface,-37.71,147.83
3885,Murrindal,-37.71,147.83
3885,SugganBuggan,-37.71,147.83
3885,TamboUpper,-37.71,147.83
3885,Timbarra,-37.71,147.83
3885,WTree,-37.71,147.83
3885,Wiseleigh,-37.71,147.83
3885,Wulgulmerang,-37.71,147.83
3885,WulgulmerangEast,-37.71,147.83
3885,WulgulmerangWest,-37.71,147.83
3885,Yalmy,-37.71,147.83
3886,Newmerella,-37.74,148.43
3887,LakeTyers,-37.84,148.12
3887,NowaNowa,-37.84,148.12
3887,Wairewa,-37.84,148.12
3888,Bendoc,-37.15,148.88
3888,BeteBolong,-37.15,148.88
3888,BeteBolongNorth,-37.15,148.88
3888,Bonang,-37.15,148.88
3888,BrodribbRiver,-37.15,148.88
3888,Cabanandra,-37.15,148.88
3888,CapeConran,-37.15,148.88
3888,Corringle,-37.15,148.88
3888,DeddickValley,-37.15,148.88
3888,Goongerah,-37.15,148.88
3888,HaydensBog,-37.15,148.88
3888,Jarrahmond,-37.15,148.88
3888,Marlo,-37.15,148.88
3888,MartinsCreek,-37.15,148.88
3888,Nurran,-37.15,148.88
3888,Orbost,-37.15,148.88
3888,SimpsonsCreek,-37.15,148.88
3888,Tostaree,-37.15,148.88
3888,Tubbut,-37.15,148.88
3888,Waygara,-37.15,148.88
3888,WombatCreek,-37.15,148.88
3889,BellbirdCreek,-37.93,145.91
3889,BemmRiver,-37.93,145.91
3889,CabbageTreeCreek,-37.93,145.91
3889,ClubTerrace,-37.93,145.91
3889,Combienbar,-37.93,145.91
3889,Errinundra,-37.93,145.91
3889,Manorina,-37.93,145.91
3890,Buldah,-37.27,149.14
3890,CannRiver,-37.27,149.14
3890,ChandlersCreek,-37.27,149.14
3890,Noorinbee,-37.27,149.14
3890,NoorinbeeNorth,-37.27,149.14
3890,Tamboon,-37.27,149.14
3890,TonghiCreek,-37.27,149.14
3891,Genoa,-37.48,149.59
3891,GipsyPoint,-37.48,149.59
3891,MaramingoCreek,-37.48,149.59
3891,Wallagaraugh,-37.48,149.59
3891,Wangarabell,-37.48,149.59
3891,WinganRiver,-37.48,149.59
3891,Wroxham,-37.48,149.59
3892,Mallacoota,-37.55,149.73
3893,DoubleBridges,-37.59,147.89
3893,Stirling,-37.59,147.89
3893,TamboCrossing,-37.59,147.89
3895,DoctorsFlat,-37.3,147.75
3895,Ensay,-37.3,147.75
3895,EnsayNorth,-37.3,147.75
3895,ReedyFlat,-37.3,147.75
3896,Bindi,-37.11,147.81
3896,Brookville,-37.11,147.81
3896,Nunniong,-37.11,147.81
3896,SwiftsCreek,-37.11,147.81
3896,Tongio,-37.11,147.81
3898,AnglersRest,-37.02,147.47
3898,BingoMunjie,-37.02,147.47
3898,Bundara,-37.02,147.47
3898,Cassilis,-37.02,147.47
3898,Cobungra,-37.02,147.47
3898,DinnerPlain,-37.02,147.47
3898,GlenValley,-37.02,147.47
3898,GlenWills,-37.02,147.47
3898,Hinnomunjie,-37.02,147.47
3898,Omeo,-37.02,147.47
3898,OmeoValley,-37.02,147.47
3898,Shannonvale,-37.02,147.47
3900,Benambra,-36.95,147.7
3900,Cobberas,-36.95,147.7
3902,Bumberrah,-37.79,147.83
3902,Johnsonville,-37.79,147.83
3903,SwanReach,-37.81,147.84
3904,Metung,-37.87,147.85
3909,Kalimna,-37.86,147.92
3909,KalimnaWest,-37.86,147.92
3909,LakeBunga,-37.86,147.92
3909,LakeTyersBeach,-37.86,147.92
3909,LakesEntrance,-37.86,147.92
3909,Nungurner,-37.86,147.92
3909,Nyerimilang,-37.86,147.92
3909,ToorlooArm,-37.86,147.92
3910,Langwarrin,-38.15,145.19
3911,Baxter,-38.2,145.16
3911,LangwarrinSouth,-38.2,145.16
3912,Pearcedale,-38.2,145.23
3912,Somerville,-38.2,145.23
3913,Tyabb,-38.26,145.19
3915,Hastings,-38.31,145.19
3915,Tuerong,-38.31,145.19
3916,Merricks,-38.39,145.09
3916,PointLeo,-38.39,145.09
3916,Shoreham,-38.39,145.09
3918,Bittern,-38.34,145.18
3919,CribPoint,-38.37,145.2
3920,HmasCerberus,0,0
3921,FrenchIsland,-38.34,145.34
3922,Cowes,-38.45,145.24
3922,Silverleaves,-38.45,145.24
3922,SmithsBeach,-38.45,145.24
3922,Summerlands,-38.45,145.24
3922,SunderlandBay,-38.45,145.24
3922,SunsetStrip,-38.45,145.24
3922,SurfBeach,-38.45,145.24
3922,Ventnor,-38.45,145.24
3922,WimbledonHeights,-38.45,145.24
3923,Rhyll,-38.46,145.31
3925,CapeWoolamai,-38.54,145.34
3925,ChurchillIsland,-38.54,145.34
3925,Newhaven,-38.54,145.34
3925,SanRemo,-38.54,145.34
3926,Balnarring,-38.37,145.13
3926,BalnarringBeach,-38.37,145.13
3926,MerricksBeach,-38.37,145.13
3926,MerricksNorth,-38.37,145.13
3927,Somers,-38.38,145.15
3928,MainRidge,-38.4,144.97
3929,Flinders,-38.47,145.02
3930,Kunyung,-38.19,145.08
3930,MountEliza,-38.19,145.08
3931,Mornington,-38.24,145.06
3933,Moorooduc,-38.24,145.09
3934,MountMartha,-38.3,144.99
3936,ArthursSeat,-38.35,144.95
3936,Dromana,-38.35,144.95
3936,SafetyBeach,-38.35,144.95
3937,RedHill,-38.37,145.01
3937,RedHillSouth,-38.37,145.01
3938,Mccrae,-37.99,145.22
3939,Boneo,-38.4,144.9
3939,CapeSchanck,-38.4,144.9
3939,Fingal,-38.4,144.9
3939,Rosebud,-38.4,144.9
3939,RosebudPlaza,-38.4,144.9
3940,RosebudWest,0,0
3941,Rye,-38.37,144.82
3941,StAndrewsBeach,-38.37,144.82
3941,Tootgarook,-38.37,144.82
3942,Blairgowrie,-38.36,144.77
3943,Sorrento,-38.34,144.74
3944,Portsea,-38.34,144.71
3945,Jeetho,-37.97,145.16
3945,Krowera,-37.97,145.16
3945,Loch,-37.97,145.16
3945,Woodleigh,-37.97,145.16
3946,Bena,-38.43,145.72
3950,KardellaSouth,-38.45,145.88
3950,Korumburra,-38.45,145.88
3950,KorumburraSouth,-38.45,145.88
3950,Strzelecki,-38.45,145.88
3950,Whitelaw,-38.45,145.88
3951,Arawata,-38.39,145.89
3951,Fairbank,-38.39,145.89
3951,Jumbunna,-38.39,145.89
3951,Kardella,-38.39,145.89
3951,Kongwak,-38.39,145.89
3951,Moyarra,-38.39,145.89
3951,Outtrim,-38.39,145.89
3951,Ranceby,-38.39,145.89
3953,BerrysCreek,-38.41,146.07
3953,Boorool,-38.41,146.07
3953,Hallston,-38.41,146.07
3953,Koorooman,-38.41,146.07
3953,Leongatha,-38.41,146.07
3953,LeongathaNorth,-38.41,146.07
3953,LeongathaSouth,-38.41,146.07
3953,Mardan,-38.41,146.07
3953,MountEccles,-38.41,146.07
3953,MountEcclesSouth,-38.41,146.07
3953,Nerrena,-38.41,146.07
3953,Ruby,-38.41,146.07
3953,Trida,-38.41,146.07
3953,WildDogValley,-38.41,146.07
3954,Koonwarra,-38.55,145.95
3956,Dumbalk,-38.53,146.1
3956,DumbalkNorth,-38.53,146.1
3956,Meeniyan,-38.53,146.1
3956,MiddleTarwin,-38.53,146.1
3956,Tarwin,-38.53,146.1
3956,TarwinLower,-38.53,146.1
3956,VenusBay,-38.53,146.1
3956,Walkerville,-38.53,146.1
3956,WalkervilleSouth,-38.53,146.1
3957,StonyCreek,-37.94,145.27
3958,Buffalo,-38.64,146.07
3959,FishCreek,-38.69,146.08
3959,SandyPoint,-38.69,146.08
3959,WaratahBay,-38.69,146.08
3960,Bennison,-38.67,146.27
3960,Boolarong,-38.67,146.27
3960,Foster,-38.67,146.27
3960,FosterNorth,-38.67,146.27
3960,Gunyah,-38.67,146.27
3960,MountBest,-38.67,146.27
3960,ShallowInlet,-38.67,146.27
3960,TidalRiver,-38.67,146.27
3960,TurtonsCreek,-38.67,146.27
3960,WilsonsPromontory,-38.67,146.27
3960,Wonga,-38.67,146.27
3960,WoorarraWest,-38.67,146.27
3960,Yanakie,-38.67,146.27
3962,Agnes,-38.67,146.4
3962,Toora,-38.67,146.4
3962,TooraNorth,-38.67,146.4
3962,Wonyip,-38.67,146.4
3962,WoorarraEast,-38.67,146.4
3964,PortFranklin,-38.68,146.27
3965,PortWelshpool,-38.69,146.45
3966,Binginwarri,-38.58,146.45
3966,HazelPark,-38.58,146.45
3966,Welshpool,-38.58,146.45
3967,Hedley,-37.69,144.96
3971,Alberton,-38.61,146.67
3971,AlbertonWest,-38.61,146.67
3971,Balook,-38.61,146.67
3971,Calrossie,-38.61,146.67
3971,DevonNorth,-38.61,146.67
3971,Gelliondale,-38.61,146.67
3971,Hiawatha,-38.61,146.67
3971,Hunterston,-38.61,146.67
3971,JackRiver,-38.61,146.67
3971,Langsborough,-38.61,146.67
3971,MacksCreek,-38.61,146.67
3971,Madalya,-38.61,146.67
3971,MannsBeach,-38.61,146.67
3971,PortAlbert,-38.61,146.67
3971,RobertsonsBeach,-38.61,146.67
3971,SnakeIsland,-38.61,146.67
3971,StaceysBridge,-38.61,146.67
3971,TarraValley,-38.61,146.67
3971,Tarraville,-38.61,146.67
3971,WonWron,-38.61,146.67
3971,Yarram,-38.61,146.67
3975,Lynbrook,-38.05,145.26
3975,Lyndhurst,-38.05,145.26
3976,HamptonPark,-38.03,145.27
3977,BotanicRidge,-38.21,145.32
3977,CannonsCreek,-38.21,145.32
3977,Cranbourne,-38.21,145.32
3977,CranbourneEast,-38.21,145.32
3977,CranbourneNorth,-38.21,145.32
3977,CranbourneSouth,-38.21,145.32
3977,CranbourneWest,-38.21,145.32
3977,DevonMeadows,-38.21,145.32
3977,JunctionVillage,-38.21,145.32
3977,Sandhurst,-38.21,145.32
3977,Skye,-38.21,145.32
3978,Cardinia,-38.15,145.42
3978,Clyde,-38.15,145.42
3978,ClydeNorth,-38.15,145.42
3979,Almurta,-38.43,145.56
3979,GlenAlvie,-38.43,145.56
3979,Kernot,-38.43,145.56
3980,BlindBight,-38.21,145.34
3980,Tooradin,-38.21,145.34
3980,Warneet,-38.21,145.34
3981,Bayles,-38.18,145.57
3981,Catani,-38.18,145.57
3981,Dalmore,-38.18,145.57
3981,HeathHill,-38.18,145.57
3981,KooWeeRup,-38.18,145.57
3981,KooWeeRupNorth,-38.18,145.57
3981,Yannathan,-38.18,145.57
3984,AdamsEstate,-38.32,145.54
3984,Caldermeade,-38.32,145.54
3984,Corinella,-38.32,145.54
3984,CoronetBay,-38.32,145.54
3984,Grantville,-38.32,145.54
3984,JamJerrup,-38.32,145.54
3984,LangLang,-38.32,145.54
3984,LangLangEast,-38.32,145.54
3984,Monomeith,-38.32,145.54
3984,PioneerBay,-38.32,145.54
3984,Queensferry,-38.32,145.54
3984,TenbyPoint,-38.32,145.54
3984,TheGurdies,-38.32,145.54
3987,Nyora,-38.33,145.67
3988,MountainView,-38.29,145.89
3988,Poowong,-38.29,145.89
3988,PoowongEast,-38.29,145.89
3988,PoowongNorth,-38.29,145.89
3990,GlenForbes,-38.45,145.53
3991,Bass,-38.48,145.47
3992,BlackwoodForest,-38.49,145.62
3992,Dalyston,-38.49,145.62
3992,Ryanston,-38.49,145.62
3992,WestCreek,-38.49,145.62
3995,Anderson,-38.53,145.45
3995,ArchiesCreek,-38.53,145.45
3995,CapePaterson,-38.53,145.45
3995,HarmersHaven,-38.53,145.45
3995,Kilcunda,-38.53,145.45
3995,LanceCreek,-38.53,145.45
3995,NorthWonthaggi,-38.53,145.45
3995,SouthDudley,-38.53,145.45
3995,StClair,-38.53,145.45
3995,WattleBank,-38.53,145.45
3995,Wonthaggi,-38.53,145.45
3995,Woolamai,-38.53,145.45
3996,Inverloch,-38.63,145.73
3996,PoundCreek,-38.63,145.73
